{
  "type": "FeatureCollection",
  "features": [
    {
      "type": "Feature",
      "geometry": {
        "type": "LineString",
        "coordinates": [
          [
            -84.0689369,
            9.9348741
          ],
          [
            -84.0689425,
            9.9348801
          ],
          [
            -84.0689488,
            9.9348794
          ],
          [
            -84.0692169,
            9.934998
          ],
          [
            -84.0692158,
            9.9350004
          ],
          [
            -84.0694177,
            9.9350811
          ],
          [
            -84.0697586,
            9.9352055
          ],
          [
            -84.0702807,
            9.935412
          ],
          [
            -84.0706013,
            9.9355382
          ],
          [
            -84.0706706,
            9.9355726
          ],
          [
            -84.0708206,
            9.935657
          ],
          [
            -84.0708946,
            9.9357232
          ],
          [
            -84.0709578,
            9.9357955
          ],
          [
            -84.0710408,
            9.9359023
          ],
          [
            -84.071121,
            9.9360274
          ],
          [
            -84.0711552,
            9.9360964
          ],
          [
            -84.0711793,
            9.9361588
          ],
          [
            -84.071214,
            9.9362484
          ],
          [
            -84.0712396,
            9.9363145
          ],
          [
            -84.0712741,
            9.9364146
          ],
          [
            -84.0713003,
            9.9365213
          ],
          [
            -84.0713123,
            9.9365909
          ],
          [
            -84.071319,
            9.9366569
          ],
          [
            -84.0713274,
            9.9367661
          ],
          [
            -84.0713281,
            9.9368268
          ],
          [
            -84.0713287,
            9.9368683
          ],
          [
            -84.0713229,
            9.9369634
          ],
          [
            -84.0713109,
            9.9370595
          ],
          [
            -84.0712699,
            9.9371853
          ],
          [
            -84.0712002,
            9.9373571
          ],
          [
            -84.0710849,
            9.9375341
          ],
          [
            -84.0709258,
            9.9377861
          ],
          [
            -84.0706703,
            9.938185
          ],
          [
            -84.0704572,
            9.9385042
          ],
          [
            -84.0701113,
            9.939014
          ],
          [
            -84.0697851,
            9.9395146
          ],
          [
            -84.0695967,
            9.9400022
          ],
          [
            -84.0695643,
            9.9401405
          ],
          [
            -84.069542,
            9.9402789
          ],
          [
            -84.0695387,
            9.9403506
          ],
          [
            -84.0695178,
            9.9406373
          ],
          [
            -84.0695186,
            9.9409149
          ],
          [
            -84.0695257,
            9.9413881
          ],
          [
            -84.0695319,
            9.9416846
          ],
          [
            -84.069535,
            9.942091
          ],
          [
            -84.0695514,
            9.9423986
          ],
          [
            -84.0695582,
            9.9425046
          ],
          [
            -84.0695793,
            9.9426301
          ],
          [
            -84.0696171,
            9.9428555
          ],
          [
            -84.0696418,
            9.9430029
          ],
          [
            -84.0696688,
            9.9431503
          ],
          [
            -84.0697142,
            9.9432935
          ],
          [
            -84.0698001,
            9.9434626
          ],
          [
            -84.0699144,
            9.9436517
          ],
          [
            -84.0700177,
            9.9437767
          ],
          [
            -84.070299,
            9.9439989
          ],
          [
            -84.0706101,
            9.9442499
          ],
          [
            -84.0708875,
            9.9444673
          ],
          [
            -84.0711887,
            9.9447226
          ],
          [
            -84.0714596,
            9.9449365
          ],
          [
            -84.0717715,
            9.9451772
          ],
          [
            -84.0719915,
            9.9453678
          ],
          [
            -84.0721975,
            9.9455116
          ],
          [
            -84.0724065,
            9.9456862
          ],
          [
            -84.072759,
            9.945944
          ],
          [
            -84.0728221,
            9.9459928
          ],
          [
            -84.0728059,
            9.9460112
          ],
          [
            -84.0735536,
            9.9465374
          ],
          [
            -84.0740713,
            9.9469376
          ],
          [
            -84.0743562,
            9.9471308
          ],
          [
            -84.0746527,
            9.9473125
          ],
          [
            -84.0751151,
            9.9475056
          ],
          [
            -84.075484,
            9.9476091
          ],
          [
            -84.0759043,
            9.9477517
          ],
          [
            -84.0762948,
            9.9479147
          ],
          [
            -84.0764298,
            9.948016
          ],
          [
            -84.0765604,
            9.9481266
          ],
          [
            -84.0766702,
            9.9482876
          ],
          [
            -84.0768523,
            9.9486625
          ],
          [
            -84.076948,
            9.9488465
          ],
          [
            -84.0770344,
            9.9489592
          ],
          [
            -84.0771185,
            9.949042
          ],
          [
            -84.0772049,
            9.9491087
          ],
          [
            -84.0773625,
            9.9491962
          ],
          [
            -84.0776168,
            9.9492732
          ],
          [
            -84.0784004,
            9.9493594
          ],
          [
            -84.0787086,
            9.9494077
          ],
          [
            -84.0789725,
            9.9494813
          ],
          [
            -84.0792807,
            9.9496468
          ],
          [
            -84.0794932,
            9.9497871
          ],
          [
            -84.0797337,
            9.9499343
          ],
          [
            -84.0799088,
            9.9500746
          ],
          [
            -84.0800979,
            9.950185
          ],
          [
            -84.0803011,
            9.9502425
          ],
          [
            -84.0804832,
            9.9502586
          ],
          [
            -84.080682,
            9.9502494
          ],
          [
            -84.0809782,
            9.9502149
          ],
          [
            -84.0817511,
            9.9501022
          ],
          [
            -84.0820547,
            9.95007
          ],
          [
            -84.0823582,
            9.9500654
          ],
          [
            -84.0827365,
            9.9501321
          ],
          [
            -84.0830634,
            9.9502724
          ],
          [
            -84.0832502,
            9.9503989
          ],
          [
            -84.0834022,
            9.9505538
          ],
          [
            -84.0857663,
            9.9541497
          ],
          [
            -84.0861228,
            9.9547059
          ],
          [
            -84.0861835,
            9.9548351
          ],
          [
            -84.0862465,
            9.9549392
          ],
          [
            -84.086401,
            9.9551575
          ],
          [
            -84.0866106,
            9.9554726
          ],
          [
            -84.0866788,
            9.9555752
          ],
          [
            -84.0881389,
            9.9578283
          ],
          [
            -84.0887993,
            9.958879
          ],
          [
            -84.0895209,
            9.9599741
          ],
          [
            -84.0906076,
            9.9616526
          ],
          [
            -84.0909123,
            9.9621067
          ],
          [
            -84.0910739,
            9.9624647
          ],
          [
            -84.0910861,
            9.9625563
          ],
          [
            -84.0910748,
            9.9628906
          ],
          [
            -84.090977,
            9.963219
          ],
          [
            -84.0907677,
            9.9634493
          ],
          [
            -84.0902862,
            9.963636
          ],
          [
            -84.0899511,
            9.9638669
          ],
          [
            -84.0897501,
            9.964202
          ],
          [
            -84.0897352,
            9.9646934
          ],
          [
            -84.0898096,
            9.9651328
          ],
          [
            -84.0899586,
            9.9655498
          ],
          [
            -84.0902639,
            9.9663838
          ],
          [
            -84.0904702,
            9.9666795
          ],
          [
            -84.0907639,
            9.9668201
          ],
          [
            -84.0911277,
            9.9668381
          ],
          [
            -84.0915702,
            9.9667371
          ],
          [
            -84.0920585,
            9.9667561
          ],
          [
            -84.092532,
            9.9669361
          ],
          [
            -84.0928496,
            9.967195
          ],
          [
            -84.0947839,
            9.9689718
          ],
          [
            -84.0952306,
            9.9693772
          ],
          [
            -84.095552,
            9.9696621
          ],
          [
            -84.0968391,
            9.9709037
          ],
          [
            -84.0973432,
            9.971351
          ],
          [
            -84.098023,
            9.9719462
          ],
          [
            -84.0982397,
            9.9721402
          ],
          [
            -84.0986159,
            9.9724809
          ],
          [
            -84.0991475,
            9.9729738
          ],
          [
            -84.099624,
            9.9734728
          ],
          [
            -84.0999219,
            9.974061
          ],
          [
            -84.1000102,
            9.9743317
          ],
          [
            -84.100166,
            9.974934
          ],
          [
            -84.1002575,
            9.9752706
          ],
          [
            -84.1004506,
            9.9759971
          ],
          [
            -84.1006516,
            9.9764662
          ],
          [
            -84.1009346,
            9.9768907
          ],
          [
            -84.1013367,
            9.9773002
          ],
          [
            -84.1020166,
            9.9779544
          ],
          [
            -84.1021781,
            9.9781417
          ],
          [
            -84.1034064,
            9.9798045
          ],
          [
            -84.1055626,
            9.9827004
          ],
          [
            -84.1057018,
            9.9828911
          ],
          [
            -84.1067613,
            9.9843436
          ],
          [
            -84.1077508,
            9.9857048
          ],
          [
            -84.108677,
            9.9869738
          ],
          [
            -84.1090156,
            9.9874515
          ],
          [
            -84.1106426,
            9.98963
          ],
          [
            -84.1109143,
            9.9900494
          ],
          [
            -84.1111621,
            9.9905784
          ],
          [
            -84.1112698,
            9.9908846
          ],
          [
            -84.1113456,
            9.9910999
          ],
          [
            -84.1115498,
            9.9916039
          ],
          [
            -84.1116007,
            9.991744
          ],
          [
            -84.1116738,
            9.9919342
          ],
          [
            -84.1122267,
            9.9934746
          ],
          [
            -84.1123789,
            9.9937622
          ],
          [
            -84.1124476,
            9.9938449
          ],
          [
            -84.1125424,
            9.9939337
          ],
          [
            -84.1126614,
            9.9940166
          ],
          [
            -84.1128775,
            9.994133
          ],
          [
            -84.112975,
            9.9941595
          ],
          [
            -84.1132916,
            9.9941796
          ],
          [
            -84.1134865,
            9.9941433
          ],
          [
            -84.1137678,
            9.9940545
          ],
          [
            -84.1140367,
            9.993987
          ],
          [
            -84.1142225,
            9.9939685
          ],
          [
            -84.114399,
            9.9939789
          ],
          [
            -84.1145987,
            9.9940138
          ],
          [
            -84.1147968,
            9.99407
          ],
          [
            -84.1150124,
            9.9941559
          ],
          [
            -84.115744,
            9.9944768
          ],
          [
            -84.1158126,
            9.9945003
          ],
          [
            -84.1158752,
            9.9945191
          ],
          [
            -84.1159633,
            9.9945473
          ],
          [
            -84.1161345,
            9.9945773
          ],
          [
            -84.1166941,
            9.9946381
          ],
          [
            -84.1166939,
            9.9946617
          ],
          [
            -84.1170597,
            9.9946758
          ],
          [
            -84.1170613,
            9.9947002
          ],
          [
            -84.11753,
            9.9947243
          ],
          [
            -84.11753,
            9.9947416
          ],
          [
            -84.1176211,
            9.9947539
          ],
          [
            -84.1179222,
            9.9947672
          ],
          [
            -84.1184294,
            9.9948131
          ],
          [
            -84.1192648,
            9.9949
          ],
          [
            -84.1195995,
            9.994932
          ],
          [
            -84.1201028,
            9.9949856
          ],
          [
            -84.1209372,
            9.9950636
          ],
          [
            -84.1217827,
            9.9951274
          ],
          [
            -84.1226357,
            9.9952092
          ],
          [
            -84.1235146,
            9.9952614
          ],
          [
            -84.1235857,
            9.995248
          ],
          [
            -84.1238297,
            9.9952002
          ],
          [
            -84.1241333,
            9.9951376
          ],
          [
            -84.1243538,
            9.9950929
          ],
          [
            -84.1245912,
            9.9950252
          ],
          [
            -84.1247819,
            9.9949665
          ],
          [
            -84.1250978,
            9.9949037
          ],
          [
            -84.1251508,
            9.9949059
          ],
          [
            -84.1255241,
            9.9949482
          ],
          [
            -84.1262198,
            9.9949873
          ],
          [
            -84.1265129,
            9.9950004
          ],
          [
            -84.1267504,
            9.9950057
          ],
          [
            -84.1270043,
            9.9950029
          ],
          [
            -84.1271401,
            9.9949934
          ],
          [
            -84.1273669,
            9.9949506
          ],
          [
            -84.1276759,
            9.9948657
          ],
          [
            -84.1278713,
            9.9948187
          ],
          [
            -84.1280626,
            9.994768
          ],
          [
            -84.1282765,
            9.9947268
          ],
          [
            -84.1284793,
            9.9947131
          ],
          [
            -84.1286435,
            9.9947182
          ],
          [
            -84.1288291,
            9.9947417
          ],
          [
            -84.1290284,
            9.9947569
          ],
          [
            -84.1292036,
            9.9947844
          ],
          [
            -84.1292685,
            9.9947939
          ],
          [
            -84.1295394,
            9.9948665
          ],
          [
            -84.1299149,
            9.9949669
          ],
          [
            -84.1300878,
            9.9950171
          ],
          [
            -84.1303964,
            9.995136
          ],
          [
            -84.1307262,
            9.9952879
          ],
          [
            -84.1309419,
            9.9954046
          ],
          [
            -84.1312224,
            9.995556
          ],
          [
            -84.1315577,
            9.9957462
          ],
          [
            -84.1320297,
            9.9960183
          ],
          [
            -84.1322605,
            9.9961543
          ],
          [
            -84.1324673,
            9.9962644
          ],
          [
            -84.1327647,
            9.9964184
          ],
          [
            -84.1338166,
            9.9970355
          ],
          [
            -84.1362476,
            9.9984126
          ],
          [
            -84.1366644,
            9.9986136
          ],
          [
            -84.136872,
            9.998694
          ],
          [
            -84.1371953,
            9.9987902
          ],
          [
            -84.1375588,
            9.998888
          ],
          [
            -84.1378557,
            9.9989643
          ],
          [
            -84.1383784,
            9.9990398
          ],
          [
            -84.138896,
            9.9991247
          ],
          [
            -84.1392103,
            9.9991793
          ],
          [
            -84.1397094,
            9.9992704
          ],
          [
            -84.1404858,
            9.9993796
          ],
          [
            -84.1411205,
            9.9994706
          ],
          [
            -84.141674,
            9.9995462
          ],
          [
            -84.1418645,
            9.9995687
          ],
          [
            -84.142265,
            9.9996476
          ],
          [
            -84.1426471,
            9.9997265
          ],
          [
            -84.1430568,
            9.999863
          ],
          [
            -84.1433711,
            10.0000057
          ],
          [
            -84.143787,
            10.0002363
          ],
          [
            -84.1440797,
            10.0004365
          ],
          [
            -84.1444464,
            10.0007763
          ],
          [
            -84.1447514,
            10.0010828
          ],
          [
            -84.1449794,
            10.0013104
          ],
          [
            -84.1450934,
            10.0014348
          ],
          [
            -84.1452814,
            10.0016138
          ],
          [
            -84.1455309,
            10.001805
          ],
          [
            -84.1457065,
            10.0018929
          ],
          [
            -84.1458883,
            10.0019688
          ],
          [
            -84.1462938,
            10.0020606
          ],
          [
            -84.1466689,
            10.0021382
          ],
          [
            -84.1469611,
            10.0022071
          ],
          [
            -84.1472918,
            10.0022706
          ],
          [
            -84.1475891,
            10.0023264
          ],
          [
            -84.1483988,
            10.0024715
          ],
          [
            -84.1501601,
            10.0027659
          ],
          [
            -84.1510496,
            10.0029147
          ],
          [
            -84.1519319,
            10.0030793
          ],
          [
            -84.1522019,
            10.0031446
          ],
          [
            -84.1521938,
            10.0031863
          ],
          [
            -84.1524174,
            10.0031651
          ],
          [
            -84.1526106,
            10.0032136
          ],
          [
            -84.1526009,
            10.0032568
          ],
          [
            -84.1528184,
            10.0032359
          ],
          [
            -84.1537087,
            10.0033999
          ],
          [
            -84.1543675,
            10.0035223
          ],
          [
            -84.1549649,
            10.0036298
          ],
          [
            -84.1556153,
            10.0037476
          ],
          [
            -84.1561303,
            10.0038606
          ],
          [
            -84.1588902,
            10.0043205
          ],
          [
            -84.160025,
            10.0044999
          ],
          [
            -84.1608458,
            10.0045847
          ],
          [
            -84.1617476,
            10.0046815
          ],
          [
            -84.1626638,
            10.0047859
          ],
          [
            -84.1633265,
            10.004854
          ],
          [
            -84.1638835,
            10.004906
          ],
          [
            -84.1643957,
            10.0049281
          ],
          [
            -84.1648502,
            10.0049509
          ],
          [
            -84.1661725,
            10.0050803
          ],
          [
            -84.166894,
            10.0051569
          ],
          [
            -84.167342,
            10.0051992
          ],
          [
            -84.1679224,
            10.0052457
          ],
          [
            -84.1681757,
            10.0052624
          ],
          [
            -84.1683612,
            10.0052705
          ],
          [
            -84.1685293,
            10.0052507
          ],
          [
            -84.168766,
            10.0051564
          ],
          [
            -84.1689996,
            10.0049744
          ],
          [
            -84.1691034,
            10.0048448
          ],
          [
            -84.1691922,
            10.0046793
          ],
          [
            -84.1692484,
            10.0045196
          ],
          [
            -84.1692744,
            10.0043798
          ],
          [
            -84.1693173,
            10.0040523
          ],
          [
            -84.1693637,
            10.0036285
          ],
          [
            -84.1693801,
            10.0035588
          ],
          [
            -84.1694148,
            10.0034546
          ],
          [
            -84.1694736,
            10.0033669
          ],
          [
            -84.1696473,
            10.0032038
          ],
          [
            -84.1698762,
            10.0030526
          ],
          [
            -84.1702651,
            10.0028811
          ],
          [
            -84.1708127,
            10.0026649
          ],
          [
            -84.1717747,
            10.00232
          ],
          [
            -84.1725639,
            10.0020578
          ],
          [
            -84.1732924,
            10.0018141
          ],
          [
            -84.1735399,
            10.0018095
          ],
          [
            -84.1738622,
            10.0018693
          ],
          [
            -84.174091,
            10.0019428
          ],
          [
            -84.1744926,
            10.0021682
          ],
          [
            -84.1747393,
            10.0023175
          ],
          [
            -84.1748491,
            10.0023933
          ],
          [
            -84.1750558,
            10.0025552
          ],
          [
            -84.1753401,
            10.0027296
          ],
          [
            -84.1759737,
            10.0029743
          ],
          [
            -84.1763083,
            10.0030638
          ],
          [
            -84.1764834,
            10.0031028
          ],
          [
            -84.1766168,
            10.0031364
          ],
          [
            -84.1768056,
            10.003158
          ],
          [
            -84.1769924,
            10.0031718
          ],
          [
            -84.1773894,
            10.0032063
          ],
          [
            -84.177791,
            10.003181
          ],
          [
            -84.1780105,
            10.0031465
          ],
          [
            -84.178237,
            10.0030891
          ],
          [
            -84.1788628,
            10.0029028
          ],
          [
            -84.1796356,
            10.0026728
          ],
          [
            -84.1805089,
            10.0024383
          ],
          [
            -84.181123,
            10.0023003
          ],
          [
            -84.1814499,
            10.0022474
          ],
          [
            -84.1818749,
            10.0022083
          ],
          [
            -84.1821971,
            10.0021876
          ],
          [
            -84.1824984,
            10.0022083
          ],
          [
            -84.1827692,
            10.0022543
          ],
          [
            -84.1829903,
            10.0023008
          ],
          [
            -84.1834627,
            10.0024659
          ],
          [
            -84.1836739,
            10.0025422
          ],
          [
            -84.1836869,
            10.0025188
          ],
          [
            -84.1838573,
            10.0026085
          ],
          [
            -84.184487,
            10.0028264
          ],
          [
            -84.1851463,
            10.0030624
          ],
          [
            -84.1854229,
            10.0031693
          ],
          [
            -84.1856133,
            10.0032608
          ],
          [
            -84.1858548,
            10.003368
          ],
          [
            -84.1861214,
            10.0034596
          ],
          [
            -84.1864087,
            10.0035703
          ],
          [
            -84.186745,
            10.0036899
          ],
          [
            -84.1869364,
            10.0037313
          ],
          [
            -84.1871139,
            10.0037221
          ],
          [
            -84.18731,
            10.0036991
          ],
          [
            -84.1877416,
            10.0035754
          ],
          [
            -84.1879732,
            10.0034876
          ],
          [
            -84.1884355,
            10.003322
          ],
          [
            -84.1891407,
            10.0030506
          ],
          [
            -84.1897018,
            10.0028292
          ],
          [
            -84.1907378,
            10.0024206
          ],
          [
            -84.1925342,
            10.0017682
          ],
          [
            -84.1929374,
            10.001602
          ],
          [
            -84.19323,
            10.0015208
          ],
          [
            -84.1935024,
            10.0014686
          ],
          [
            -84.1939508,
            10.001441
          ],
          [
            -84.1942797,
            10.0014529
          ],
          [
            -84.1947451,
            10.0015166
          ],
          [
            -84.1952532,
            10.0015934
          ],
          [
            -84.1952571,
            10.0015666
          ],
          [
            -84.20928014,
            10.00858815
          ]
        ]
      },
      "properties": {
        "shape_id": "atlantico_alajuela"
      }
    }
  ]
}