{
  "type": "FeatureCollection",
  "features": [
    {
      "type": "Feature",
      "geometry": {
        "type": "LineString",
        "coordinates": [
          [
            -84.0689369,
            9.9348741
          ],
          [
            -84.0687269,
            9.9347849
          ],
          [
            -84.0686116,
            9.9347342
          ],
          [
            -84.067946,
            9.9343972
          ],
          [
            -84.0677596,
            9.9343165
          ],
          [
            -84.0674254,
            9.9341662
          ],
          [
            -84.0672424,
            9.9340801
          ],
          [
            -84.0670711,
            9.9340078
          ],
          [
            -84.0666193,
            9.9337832
          ],
          [
            -84.0662543,
            9.9336536
          ],
          [
            -84.066215,
            9.9336442
          ],
          [
            -84.0661287,
            9.9336275
          ],
          [
            -84.0656888,
            9.9335718
          ],
          [
            -84.0653349,
            9.9335423
          ],
          [
            -84.0650526,
            9.9335552
          ],
          [
            -84.0649459,
            9.9335683
          ],
          [
            -84.0648111,
            9.9335883
          ],
          [
            -84.0643327,
            9.9336919
          ],
          [
            -84.0637196,
            9.93386
          ],
          [
            -84.0635476,
            9.9339051
          ],
          [
            -84.0632555,
            9.9338934
          ],
          [
            -84.0630543,
            9.9338538
          ],
          [
            -84.0628666,
            9.9337772
          ],
          [
            -84.0626734,
            9.9336266
          ],
          [
            -84.0625742,
            9.933513
          ],
          [
            -84.0624991,
            9.9333914
          ],
          [
            -84.0624012,
            9.9331517
          ],
          [
            -84.0623865,
            9.9328815
          ],
          [
            -84.0624294,
            9.9326226
          ],
          [
            -84.0625098,
            9.9324482
          ],
          [
            -84.0626895,
            9.9322025
          ],
          [
            -84.062939,
            9.9319727
          ],
          [
            -84.0630999,
            9.9318829
          ],
          [
            -84.0632935,
            9.9317909
          ],
          [
            -84.0638305,
            9.9317982
          ],
          [
            -84.0643195,
            9.9318601
          ],
          [
            -84.0646937,
            9.9319546
          ],
          [
            -84.0650798,
            9.9320424
          ],
          [
            -84.0652956,
            9.9320656
          ],
          [
            -84.0653951,
            9.932069
          ],
          [
            -84.0654868,
            9.9320708
          ],
          [
            -84.0656278,
            9.932034
          ],
          [
            -84.065646,
            9.9320171
          ],
          [
            -84.0657133,
            9.9319766
          ],
          [
            -84.0658726,
            9.9318825
          ],
          [
            -84.0663747,
            9.9315591
          ],
          [
            -84.0665335,
            9.9314579
          ],
          [
            -84.0667109,
            9.9313728
          ],
          [
            -84.0669606,
            9.9313013
          ],
          [
            -84.0672643,
            9.9312486
          ],
          [
            -84.0675936,
            9.9312532
          ],
          [
            -84.0678878,
            9.9313153
          ],
          [
            -84.0681863,
            9.9314307
          ],
          [
            -84.0692549,
            9.9319769
          ],
          [
            -84.0693697,
            9.932044
          ],
          [
            -84.0695759,
            9.9321114
          ],
          [
            -84.0700585,
            9.932163
          ],
          [
            -84.0701113,
            9.9321644
          ],
          [
            -84.0705146,
            9.9321482
          ],
          [
            -84.0707967,
            9.9321183
          ],
          [
            -84.071038,
            9.932063
          ],
          [
            -84.0712178,
            9.9320045
          ],
          [
            -84.0715658,
            9.9318228
          ],
          [
            -84.0718639,
            9.931663
          ],
          [
            -84.0725767,
            9.9312756
          ],
          [
            -84.0727059,
            9.9312068
          ],
          [
            -84.0727575,
            9.9311851
          ],
          [
            -84.0728796,
            9.9311337
          ],
          [
            -84.0729907,
            9.9309536
          ],
          [
            -84.0730492,
            9.9308689
          ],
          [
            -84.0731224,
            9.9307374
          ],
          [
            -84.0731681,
            9.9306293
          ],
          [
            -84.0731828,
            9.9301951
          ],
          [
            -84.0732285,
            9.9294115
          ],
          [
            -84.0732596,
            9.928865
          ],
          [
            -84.0732729,
            9.9283552
          ],
          [
            -84.073298,
            9.9278973
          ],
          [
            -84.0733182,
            9.9273891
          ],
          [
            -84.073331,
            9.9268467
          ],
          [
            -84.0733682,
            9.9261057
          ],
          [
            -84.073426,
            9.9259232
          ],
          [
            -84.0734821,
            9.9257754
          ],
          [
            -84.0735136,
            9.9257026
          ],
          [
            -84.0735292,
            9.9256595
          ],
          [
            -84.0736507,
            9.9254993
          ],
          [
            -84.0738048,
            9.9253187
          ],
          [
            -84.073948,
            9.9252034
          ],
          [
            -84.0741406,
            9.925085
          ],
          [
            -84.0743336,
            9.9250258
          ],
          [
            -84.0746097,
            9.9249434
          ],
          [
            -84.0747599,
            9.9249291
          ],
          [
            -84.0748187,
            9.9249314
          ],
          [
            -84.0756998,
            9.9250057
          ],
          [
            -84.076611,
            9.9250817
          ],
          [
            -84.0771475,
            9.9251296
          ],
          [
            -84.0777445,
            9.9251862
          ],
          [
            -84.0791117,
            9.9253116
          ],
          [
            -84.0791463,
            9.9253156
          ],
          [
            -84.0797588,
            9.9253651
          ],
          [
            -84.0799658,
            9.9253866
          ],
          [
            -84.0802126,
            9.92540567
          ],
          [
            -84.0803734,
            9.925431
          ],
          [
            -84.0803725,
            9.92541693
          ],
          [
            -84.0803989,
            9.9253576
          ],
          [
            -84.0806108,
            9.9253523
          ],
          [
            -84.0808722,
            9.92537369
          ],
          [
            -84.0811014,
            9.9253945
          ],
          [
            -84.0836314,
            9.9257294
          ],
          [
            -84.0844052,
            9.9258004
          ],
          [
            -84.084703,
            9.9258029
          ],
          [
            -84.0850864,
            9.9257564
          ],
          [
            -84.0853768,
            9.9256818
          ],
          [
            -84.0856152,
            9.9255773
          ],
          [
            -84.0861128,
            9.9253837
          ],
          [
            -84.0864369,
            9.9252137
          ],
          [
            -84.0868748,
            9.9250369
          ],
          [
            -84.0870523,
            9.9249764
          ],
          [
            -84.0874217,
            9.924989
          ],
          [
            -84.0892389,
            9.9252757
          ],
          [
            -84.0898437,
            9.9253976
          ],
          [
            -84.0904344,
            9.9255076
          ],
          [
            -84.0906049,
            9.9255816
          ],
          [
            -84.0907566,
            9.9256598
          ],
          [
            -84.0909738,
            9.9258116
          ],
          [
            -84.0910545,
            9.9259238
          ],
          [
            -84.0910992,
            9.9259689
          ],
          [
            -84.09114,
            9.9260257
          ],
          [
            -84.091254,
            9.9261842
          ],
          [
            -84.0914501,
            9.9264878
          ],
          [
            -84.0917519,
            9.9269607
          ],
          [
            -84.0918611,
            9.9271319
          ],
          [
            -84.0919248,
            9.9273064
          ],
          [
            -84.09210541,
            9.92750186
          ],
          [
            -84.0925688,
            9.9282132
          ],
          [
            -84.0927599,
            9.928478
          ],
          [
            -84.0930263,
            9.9289052
          ],
          [
            -84.0937125,
            9.9299259
          ],
          [
            -84.0939136,
            9.9302116
          ],
          [
            -84.0940513,
            9.9303611
          ],
          [
            -84.0942428,
            9.9305382
          ],
          [
            -84.0944314,
            9.9306868
          ],
          [
            -84.0946484,
            9.9308313
          ],
          [
            -84.0947073,
            9.9308862
          ],
          [
            -84.0962424,
            9.9316947
          ],
          [
            -84.096875,
            9.9320095
          ],
          [
            -84.0972603,
            9.9321681
          ],
          [
            -84.097488,
            9.9322482
          ],
          [
            -84.0977075,
            9.9323003
          ],
          [
            -84.0982177,
            9.9323561
          ],
          [
            -84.0982979,
            9.9323627
          ],
          [
            -84.0984424,
            9.9323793
          ],
          [
            -84.0987077,
            9.9324057
          ],
          [
            -84.1014158,
            9.9326467
          ],
          [
            -84.1014151,
            9.9326563
          ],
          [
            -84.1099142,
            9.9334995
          ],
          [
            -84.1103089,
            9.9335372
          ],
          [
            -84.1114284,
            9.9336421
          ],
          [
            -84.1119459,
            9.9338354
          ],
          [
            -84.1123171,
            9.9341474
          ],
          [
            -84.1125672,
            9.9344853
          ],
          [
            -84.1126877,
            9.9347997
          ],
          [
            -84.1126823,
            9.9354121
          ],
          [
            -84.1126616,
            9.935707
          ],
          [
            -84.1126773,
            9.9358435
          ],
          [
            -84.1127081,
            9.9359513
          ],
          [
            -84.1127559,
            9.9360803
          ],
          [
            -84.1128082,
            9.9361774
          ],
          [
            -84.1129085,
            9.9363284
          ],
          [
            -84.1130095,
            9.9364527
          ],
          [
            -84.1131141,
            9.9365531
          ],
          [
            -84.1132214,
            9.9366324
          ],
          [
            -84.1133448,
            9.9366958
          ],
          [
            -84.1135567,
            9.9367592
          ],
          [
            -84.1138061,
            9.936775
          ],
          [
            -84.1144471,
            9.9367909
          ],
          [
            -84.1150989,
            9.936775
          ],
          [
            -84.1154394,
            9.9367621
          ],
          [
            -84.1156674,
            9.9367783
          ],
          [
            -84.1157881,
            9.9367966
          ],
          [
            -84.1163195,
            9.9368955
          ],
          [
            -84.1167884,
            9.9369684
          ],
          [
            -84.1171187,
            9.9370198
          ],
          [
            -84.1174587,
            9.9371184
          ],
          [
            -84.1193668,
            9.9378877
          ],
          [
            -84.1196425,
            9.9379988
          ],
          [
            -84.1202932,
            9.9382944
          ],
          [
            -84.1205828,
            9.9384759
          ],
          [
            -84.1207226,
            9.9386357
          ],
          [
            -84.1213764,
            9.9393833
          ],
          [
            -84.1220143,
            9.9398456
          ],
          [
            -84.1227607,
            9.9401587
          ],
          [
            -84.1235259,
            9.9402396
          ],
          [
            -84.1237152,
            9.9402355
          ],
          [
            -84.1237316,
            9.9403739
          ],
          [
            -84.1273819,
            9.9401569
          ],
          [
            -84.130606,
            9.9400121
          ],
          [
            -84.1315596,
            9.9399871
          ],
          [
            -84.1324677,
            9.9399541
          ],
          [
            -84.1333511,
            9.93996
          ],
          [
            -84.1335334,
            9.9399761
          ],
          [
            -84.1342488,
            9.9400393
          ],
          [
            -84.1346063,
            9.9400741
          ],
          [
            -84.1351172,
            9.940129
          ],
          [
            -84.1351584,
            9.9401334
          ],
          [
            -84.1352011,
            9.9401443
          ],
          [
            -84.13544,
            9.9402052
          ],
          [
            -84.1357196,
            9.9403245
          ],
          [
            -84.1359072,
            9.9404913
          ],
          [
            -84.1360783,
            9.9407277
          ],
          [
            -84.1361102,
            9.9407782
          ],
          [
            -84.1361264,
            9.9408153
          ],
          [
            -84.1361434,
            9.940893
          ],
          [
            -84.1361691,
            9.9410177
          ],
          [
            -84.1361764,
            9.941222
          ],
          [
            -84.1361333,
            9.9417103
          ],
          [
            -84.1360214,
            9.9426069
          ],
          [
            -84.1359248,
            9.9434921
          ],
          [
            -84.1358682,
            9.9439874
          ],
          [
            -84.1358491,
            9.9441934
          ],
          [
            -84.1358265,
            9.9444947
          ],
          [
            -84.1358105,
            9.9448979
          ],
          [
            -84.1358763,
            9.9451345
          ],
          [
            -84.1359982,
            9.945368
          ],
          [
            -84.1362038,
            9.9456094
          ],
          [
            -84.136453,
            9.9457991
          ],
          [
            -84.1374652,
            9.9461457
          ],
          [
            -84.1380366,
            9.9463192
          ],
          [
            -84.1400628,
            9.9469399
          ],
          [
            -84.1421,
            9.947496
          ],
          [
            -84.1424505,
            9.9476398
          ],
          [
            -84.1427591,
            9.9478248
          ],
          [
            -84.1430724,
            9.9481148
          ],
          [
            -84.1433056,
            9.9484209
          ],
          [
            -84.1437941,
            9.9493497
          ],
          [
            -84.1440878,
            9.9498597
          ],
          [
            -84.1440943,
            9.9498709
          ],
          [
            -84.1448767,
            9.9512865
          ],
          [
            -84.1460022,
            9.9535703
          ],
          [
            -84.1461154,
            9.9537889
          ],
          [
            -84.1462897,
            9.9539983
          ],
          [
            -84.1465164,
            9.9541803
          ],
          [
            -84.1468083,
            9.9543582
          ],
          [
            -84.1485207,
            9.955132
          ],
          [
            -84.1497053,
            9.9556673
          ],
          [
            -84.1498934,
            9.955766
          ],
          [
            -84.1500782,
            9.9559195
          ],
          [
            -84.1502948,
            9.956142
          ],
          [
            -84.150403,
            9.9562952
          ],
          [
            -84.1504816,
            9.9564417
          ],
          [
            -84.1506836,
            9.9569459
          ],
          [
            -84.1507712,
            9.957101
          ],
          [
            -84.1508221,
            9.9572144
          ],
          [
            -84.1509105,
            9.9573359
          ],
          [
            -84.151059,
            9.9575594
          ],
          [
            -84.1511888,
            9.9576935
          ],
          [
            -84.15138,
            9.9578623
          ],
          [
            -84.1530463,
            9.9588981
          ],
          [
            -84.1544204,
            9.9597493
          ],
          [
            -84.1574295,
            9.9616592
          ],
          [
            -84.1577814,
            9.9618536
          ],
          [
            -84.1580303,
            9.9619297
          ],
          [
            -84.1586569,
            9.9619551
          ],
          [
            -84.1592577,
            9.962048
          ],
          [
            -84.1596532,
            9.9622124
          ],
          [
            -84.1598843,
            9.9623777
          ],
          [
            -84.161048,
            9.9632479
          ],
          [
            -84.1615065,
            9.9641615
          ],
          [
            -84.1617811,
            9.9644151
          ],
          [
            -84.1621588,
            9.9646264
          ],
          [
            -84.1629656,
            9.9649645
          ],
          [
            -84.1633237,
            9.9650848
          ],
          [
            -84.1639956,
            9.9653196
          ],
          [
            -84.1642531,
            9.965514
          ],
          [
            -84.164605,
            9.965793
          ],
          [
            -84.165695,
            9.9661227
          ],
          [
            -84.1660298,
            9.9661565
          ],
          [
            -84.1665791,
            9.9660804
          ],
          [
            -84.1669825,
            9.9661819
          ],
          [
            -84.1672538,
            9.9664186
          ],
          [
            -84.1676427,
            9.9668652
          ],
          [
            -84.1690682,
            9.9678895
          ],
          [
            -84.16936,
            9.9681769
          ],
          [
            -84.1694887,
            9.9685488
          ],
          [
            -84.1703642,
            9.9704931
          ],
          [
            -84.1706904,
            9.9717358
          ],
          [
            -84.1709307,
            9.972243
          ],
          [
            -84.1713255,
            9.972784
          ],
          [
            -84.1717632,
            9.9731306
          ],
          [
            -84.1722439,
            9.9734011
          ],
          [
            -84.172716,
            9.973604
          ],
          [
            -84.1731795,
            9.9737139
          ],
          [
            -84.1738318,
            9.9737562
          ],
          [
            -84.1753681,
            9.9737731
          ],
          [
            -84.1766642,
            9.9739252
          ],
          [
            -84.1776169,
            9.9741112
          ],
          [
            -84.1781875,
            9.974361
          ],
          [
            -84.1783121,
            9.9744155
          ],
          [
            -84.1783816,
            9.9744622
          ],
          [
            -84.1788529,
            9.974779
          ],
          [
            -84.1792219,
            9.9750918
          ],
          [
            -84.179488,
            9.975413
          ],
          [
            -84.1798155,
            9.9757417
          ],
          [
            -84.1799429,
            9.9758695
          ],
          [
            -84.1804407,
            9.9763851
          ],
          [
            -84.1806896,
            9.9767571
          ],
          [
            -84.1808184,
            9.9770529
          ],
          [
            -84.1808634,
            9.9775433
          ],
          [
            -84.1808959,
            9.9778276
          ],
          [
            -84.1809304,
            9.9781399
          ],
          [
            -84.1810097,
            9.9784983
          ],
          [
            -84.1810788,
            9.9786304
          ],
          [
            -84.1811784,
            9.9787445
          ],
          [
            -84.1813492,
            9.9788886
          ],
          [
            -84.1815179,
            9.9789867
          ],
          [
            -84.1816825,
            9.9790388
          ],
          [
            -84.1819793,
            9.9790888
          ],
          [
            -84.1822009,
            9.9790969
          ],
          [
            -84.1823513,
            9.9790989
          ],
          [
            -84.1824753,
            9.9790928
          ],
          [
            -84.1827172,
            9.9790408
          ],
          [
            -84.1833087,
            9.9788586
          ],
          [
            -84.1847012,
            9.9785043
          ],
          [
            -84.1848199,
            9.9784986
          ],
          [
            -84.1849399,
            9.9784607
          ]
        ]
      },
      "properties": {
        "shape_id": "atlantico_belen"
      }
    }
  ]
}