{
  "type": "FeatureCollection",
  "features": [
    {
      "type": "Feature",
      "geometry": {
        "type": "LineString",
        "coordinates": [
          [
            -84.1170613,
            9.9947002
          ],
          [
            -84.1170597,
            9.9946758
          ],
          [
            -84.1166939,
            9.9946617
          ],
          [
            -84.1166941,
            9.9946381
          ],
          [
            -84.1161345,
            9.9945773
          ],
          [
            -84.1159633,
            9.9945473
          ],
          [
            -84.1158752,
            9.9945191
          ],
          [
            -84.1158126,
            9.9945003
          ],
          [
            -84.115744,
            9.9944768
          ],
          [
            -84.1150124,
            9.9941559
          ],
          [
            -84.1147968,
            9.99407
          ],
          [
            -84.1145987,
            9.9940138
          ],
          [
            -84.114399,
            9.9939789
          ],
          [
            -84.1142225,
            9.9939685
          ],
          [
            -84.1140367,
            9.993987
          ],
          [
            -84.1137678,
            9.9940545
          ],
          [
            -84.1134865,
            9.9941433
          ],
          [
            -84.1132916,
            9.9941796
          ],
          [
            -84.112975,
            9.9941595
          ],
          [
            -84.1128775,
            9.994133
          ],
          [
            -84.1126614,
            9.9940166
          ],
          [
            -84.1125424,
            9.9939337
          ],
          [
            -84.1124476,
            9.9938449
          ],
          [
            -84.1123789,
            9.9937622
          ],
          [
            -84.1122267,
            9.9934746
          ],
          [
            -84.1116738,
            9.9919342
          ],
          [
            -84.1116007,
            9.991744
          ],
          [
            -84.1115498,
            9.9916039
          ],
          [
            -84.1113456,
            9.9910999
          ],
          [
            -84.1112698,
            9.9908846
          ],
          [
            -84.1111621,
            9.9905784
          ],
          [
            -84.1109143,
            9.9900494
          ],
          [
            -84.1106426,
            9.98963
          ],
          [
            -84.1090156,
            9.9874515
          ],
          [
            -84.108677,
            9.9869738
          ],
          [
            -84.1077508,
            9.9857048
          ],
          [
            -84.1067613,
            9.9843436
          ],
          [
            -84.1057018,
            9.9828911
          ],
          [
            -84.1055626,
            9.9827004
          ],
          [
            -84.1034064,
            9.9798045
          ],
          [
            -84.1021781,
            9.9781417
          ],
          [
            -84.1020166,
            9.9779544
          ],
          [
            -84.1013367,
            9.9773002
          ],
          [
            -84.1009346,
            9.9768907
          ],
          [
            -84.1006516,
            9.9764662
          ],
          [
            -84.1004506,
            9.9759971
          ],
          [
            -84.1002575,
            9.9752706
          ],
          [
            -84.100166,
            9.974934
          ],
          [
            -84.1000102,
            9.9743317
          ],
          [
            -84.0999219,
            9.974061
          ],
          [
            -84.099624,
            9.9734728
          ],
          [
            -84.0991475,
            9.9729738
          ],
          [
            -84.0986159,
            9.9724809
          ],
          [
            -84.0982397,
            9.9721402
          ],
          [
            -84.098023,
            9.9719462
          ],
          [
            -84.0973432,
            9.971351
          ],
          [
            -84.0968391,
            9.9709037
          ],
          [
            -84.095552,
            9.9696621
          ],
          [
            -84.0952306,
            9.9693772
          ],
          [
            -84.0947839,
            9.9689718
          ],
          [
            -84.0928496,
            9.967195
          ],
          [
            -84.092532,
            9.9669361
          ],
          [
            -84.0920585,
            9.9667561
          ],
          [
            -84.0915702,
            9.9667371
          ],
          [
            -84.0911277,
            9.9668381
          ],
          [
            -84.0907639,
            9.9668201
          ],
          [
            -84.0904702,
            9.9666795
          ],
          [
            -84.0902639,
            9.9663838
          ],
          [
            -84.0899586,
            9.9655498
          ],
          [
            -84.0898096,
            9.9651328
          ],
          [
            -84.0897352,
            9.9646934
          ],
          [
            -84.0897501,
            9.964202
          ],
          [
            -84.0899511,
            9.9638669
          ],
          [
            -84.0902862,
            9.963636
          ],
          [
            -84.0907677,
            9.9634493
          ],
          [
            -84.090977,
            9.963219
          ],
          [
            -84.0910748,
            9.9628906
          ],
          [
            -84.0910861,
            9.9625563
          ],
          [
            -84.0910739,
            9.9624647
          ],
          [
            -84.0909123,
            9.9621067
          ],
          [
            -84.0906076,
            9.9616526
          ],
          [
            -84.0895209,
            9.9599741
          ],
          [
            -84.0887993,
            9.958879
          ],
          [
            -84.0881389,
            9.9578283
          ],
          [
            -84.0866788,
            9.9555752
          ],
          [
            -84.0866106,
            9.9554726
          ],
          [
            -84.086401,
            9.9551575
          ],
          [
            -84.0862465,
            9.9549392
          ],
          [
            -84.0861835,
            9.9548351
          ],
          [
            -84.0861228,
            9.9547059
          ],
          [
            -84.0857663,
            9.9541497
          ],
          [
            -84.0834022,
            9.9505538
          ],
          [
            -84.0832502,
            9.9503989
          ],
          [
            -84.0830634,
            9.9502724
          ],
          [
            -84.0827365,
            9.9501321
          ],
          [
            -84.0823582,
            9.9500654
          ],
          [
            -84.0820547,
            9.95007
          ],
          [
            -84.0817511,
            9.9501022
          ],
          [
            -84.0809782,
            9.9502149
          ],
          [
            -84.080682,
            9.9502494
          ],
          [
            -84.0804832,
            9.9502586
          ],
          [
            -84.0803011,
            9.9502425
          ],
          [
            -84.0800979,
            9.950185
          ],
          [
            -84.0799088,
            9.9500746
          ],
          [
            -84.0797337,
            9.9499343
          ],
          [
            -84.0794932,
            9.9497871
          ],
          [
            -84.0792807,
            9.9496468
          ],
          [
            -84.0789725,
            9.9494813
          ],
          [
            -84.0787086,
            9.9494077
          ],
          [
            -84.0784004,
            9.9493594
          ],
          [
            -84.0776168,
            9.9492732
          ],
          [
            -84.0773625,
            9.9491962
          ],
          [
            -84.0772049,
            9.9491087
          ],
          [
            -84.0771185,
            9.949042
          ],
          [
            -84.0770344,
            9.9489592
          ],
          [
            -84.076948,
            9.9488465
          ],
          [
            -84.0768523,
            9.9486625
          ],
          [
            -84.0766702,
            9.9482876
          ],
          [
            -84.0765604,
            9.9481266
          ],
          [
            -84.0764298,
            9.948016
          ],
          [
            -84.0762948,
            9.9479147
          ],
          [
            -84.0759043,
            9.9477517
          ],
          [
            -84.075484,
            9.9476091
          ],
          [
            -84.0751151,
            9.9475056
          ],
          [
            -84.0746527,
            9.9473125
          ],
          [
            -84.0743562,
            9.9471308
          ],
          [
            -84.0740713,
            9.9469376
          ],
          [
            -84.0735536,
            9.9465374
          ],
          [
            -84.0728059,
            9.9460112
          ],
          [
            -84.0728221,
            9.9459928
          ],
          [
            -84.072759,
            9.945944
          ],
          [
            -84.0724065,
            9.9456862
          ],
          [
            -84.0721975,
            9.9455116
          ],
          [
            -84.0719915,
            9.9453678
          ],
          [
            -84.0717715,
            9.9451772
          ],
          [
            -84.0714596,
            9.9449365
          ],
          [
            -84.0711887,
            9.9447226
          ],
          [
            -84.0708875,
            9.9444673
          ],
          [
            -84.0706101,
            9.9442499
          ],
          [
            -84.070299,
            9.9439989
          ],
          [
            -84.0700177,
            9.9437767
          ],
          [
            -84.0699144,
            9.9436517
          ],
          [
            -84.0698001,
            9.9434626
          ],
          [
            -84.0697142,
            9.9432935
          ],
          [
            -84.0696688,
            9.9431503
          ],
          [
            -84.0696418,
            9.9430029
          ],
          [
            -84.0696171,
            9.9428555
          ],
          [
            -84.0695793,
            9.9426301
          ],
          [
            -84.0695582,
            9.9425046
          ],
          [
            -84.0695514,
            9.9423986
          ],
          [
            -84.069535,
            9.942091
          ],
          [
            -84.0695319,
            9.9416846
          ],
          [
            -84.0695257,
            9.9413881
          ],
          [
            -84.0695186,
            9.9409149
          ],
          [
            -84.0695178,
            9.9406373
          ],
          [
            -84.0695387,
            9.9403506
          ],
          [
            -84.069542,
            9.9402789
          ],
          [
            -84.0695643,
            9.9401405
          ],
          [
            -84.0695967,
            9.9400022
          ],
          [
            -84.0697851,
            9.9395146
          ],
          [
            -84.0701113,
            9.939014
          ],
          [
            -84.0704572,
            9.9385042
          ],
          [
            -84.0706703,
            9.938185
          ],
          [
            -84.0709258,
            9.9377861
          ],
          [
            -84.0710849,
            9.9375341
          ],
          [
            -84.0712002,
            9.9373571
          ],
          [
            -84.0712699,
            9.9371853
          ],
          [
            -84.0713109,
            9.9370595
          ],
          [
            -84.0713229,
            9.9369634
          ],
          [
            -84.0713287,
            9.9368683
          ],
          [
            -84.0713281,
            9.9368268
          ],
          [
            -84.0713274,
            9.9367661
          ],
          [
            -84.071319,
            9.9366569
          ],
          [
            -84.0713123,
            9.9365909
          ],
          [
            -84.0713003,
            9.9365213
          ],
          [
            -84.0712741,
            9.9364146
          ],
          [
            -84.0712396,
            9.9363145
          ],
          [
            -84.071214,
            9.9362484
          ],
          [
            -84.0711793,
            9.9361588
          ],
          [
            -84.0711552,
            9.9360964
          ],
          [
            -84.071121,
            9.9360274
          ],
          [
            -84.0710408,
            9.9359023
          ],
          [
            -84.0709578,
            9.9357955
          ],
          [
            -84.0708946,
            9.9357232
          ],
          [
            -84.0708206,
            9.935657
          ],
          [
            -84.0706706,
            9.9355726
          ],
          [
            -84.0706013,
            9.9355382
          ],
          [
            -84.0702807,
            9.935412
          ],
          [
            -84.0697586,
            9.9352055
          ],
          [
            -84.0694177,
            9.9350811
          ],
          [
            -84.0692158,
            9.9350004
          ],
          [
            -84.0692169,
            9.934998
          ],
          [
            -84.0689488,
            9.9348794
          ],
          [
            -84.0689425,
            9.9348801
          ],
          [
            -84.0689369,
            9.9348741
          ]
        ]
      },
      "properties": {
        "shape_id": "heredia_atlantico"
      }
    }
  ]
}