{
  "type": "FeatureCollection",
  "features": [
    {
      "type": "Feature",
      "properties": {
        "shape_id": "metropoli_atlantico"
      },
      "geometry": {
        "coordinates": [
          [-84.1499, 9.955766],
          [-84.1497, 9.955667],
          [-84.1485, 9.955132],
          [-84.1468, 9.954358],
          [-84.1465, 9.95418],
          [-84.1463, 9.953998],
          [-84.1461, 9.953789],
          [-84.146, 9.95357],
          [-84.1449, 9.951287],
          [-84.1441, 9.949871],
          [-84.1441, 9.94986],
          [-84.1438, 9.94935],
          [-84.1433, 9.948421],
          [-84.1431, 9.948115],
          [-84.1428, 9.947825],
          [-84.1425, 9.94764],
          [-84.1421, 9.947496],
          [-84.1401, 9.94694],
          [-84.138, 9.946319],
          [-84.1375, 9.946146],
          [-84.1365, 9.945799],
          [-84.1362, 9.945609],
          [-84.136, 9.945368],
          [-84.1359, 9.945135],
          [-84.1358, 9.944898],
          [-84.1358, 9.944495],
          [-84.1358, 9.944193],
          [-84.1359, 9.943987],
          [-84.1359, 9.943492],
          [-84.136, 9.942607],
          [-84.1361, 9.94171],
          [-84.1362, 9.941222],
          [-84.1362, 9.941018],
          [-84.1361, 9.940893],
          [-84.1361, 9.940815],
          [-84.1361, 9.940778],
          [-84.1361, 9.940728],
          [-84.1359, 9.940491],
          [-84.1357, 9.940325],
          [-84.1354, 9.940205],
          [-84.1352, 9.940144],
          [-84.1352, 9.940133],
          [-84.1351, 9.940129],
          [-84.1346, 9.940074],
          [-84.1342, 9.940039],
          [-84.1335, 9.939976],
          [-84.1334, 9.93996],
          [-84.1325, 9.939954],
          [-84.1316, 9.939987],
          [-84.1306, 9.940012],
          [-84.1274, 9.940157],
          [-84.1237, 9.940374],
          [-84.1237, 9.940236],
          [-84.1235, 9.94024],
          [-84.1228, 9.940159],
          [-84.122, 9.939846],
          [-84.1214, 9.939383],
          [-84.1207, 9.938636],
          [-84.1206, 9.938476],
          [-84.1203, 9.938294],
          [-84.1196, 9.937999],
          [-84.1194, 9.937888],
          [-84.1175, 9.937118],
          [-84.1171, 9.93702],
          [-84.1168, 9.936968],
          [-84.1163, 9.936896],
          [-84.1158, 9.936797],
          [-84.1157, 9.936778],
          [-84.1154, 9.936762],
          [-84.1151, 9.936775],
          [-84.1144, 9.936791],
          [-84.1138, 9.936775],
          [-84.1136, 9.936759],
          [-84.1133, 9.936696],
          [-84.1132, 9.936632],
          [-84.1131, 9.936553],
          [-84.113, 9.936453],
          [-84.1129, 9.936328],
          [-84.1128, 9.936177],
          [-84.1128, 9.93608],
          [-84.1127, 9.935951],
          [-84.1127, 9.935844],
          [-84.1127, 9.935707],
          [-84.1127, 9.935412],
          [-84.1127, 9.9348],
          [-84.1126, 9.934485],
          [-84.1123, 9.934147],
          [-84.1119, 9.933835],
          [-84.1114, 9.933642],
          [-84.1103, 9.933537],
          [-84.1099, 9.9335],
          [-84.1014, 9.932656],
          [-84.1014, 9.932647],
          [-84.0987, 9.932406],
          [-84.0984, 9.932379],
          [-84.0983, 9.932363],
          [-84.0982, 9.932356],
          [-84.0977, 9.9323],
          [-84.0975, 9.932248],
          [-84.0973, 9.932168],
          [-84.0969, 9.93201],
          [-84.0962, 9.931695],
          [-84.0947, 9.930886],
          [-84.0946, 9.930831],
          [-84.0944, 9.930687],
          [-84.0942, 9.930538],
          [-84.0941, 9.930361],
          [-84.0939, 9.930212],
          [-84.0937, 9.929926],
          [-84.093, 9.928905],
          [-84.0928, 9.928478],
          [-84.0926, 9.928213],
          [-84.0921, 9.927502],
          [-84.0919, 9.927306],
          [-84.0919, 9.927132],
          [-84.0918, 9.926961],
          [-84.0915, 9.926488],
          [-84.0913, 9.926184],
          [-84.0911, 9.926026],
          [-84.0911, 9.925969],
          [-84.0911, 9.925924],
          [-84.091, 9.925812],
          [-84.0908, 9.92566],
          [-84.0906, 9.925582],
          [-84.0904, 9.925508],
          [-84.0898, 9.925398],
          [-84.0892, 9.925276],
          [-84.0874, 9.924989],
          [-84.0871, 9.924976],
          [-84.0869, 9.925037],
          [-84.0864, 9.925214],
          [-84.0861, 9.925384],
          [-84.0856, 9.925577],
          [-84.0854, 9.925682],
          [-84.0851, 9.925756],
          [-84.0847, 9.925803],
          [-84.0844, 9.9258],
          [-84.0836, 9.925729],
          [-84.0811, 9.925395],
          [-84.07480289092318, 9.924944384013621],
          [-84.07466214481413, 9.924940990526423],
          [-84.07434784850575, 9.92500616792583],
          [-84.07410799079625, 9.925128375512799],
          [-84.07385159117581, 9.925315760390802],
          [-84.07363654633305, 9.925543880966728],
          [-84.0734876691346, 9.925772001384885],
          [-84.07337187575743, 9.926171211733077],
          [-84.07335533384651, 9.926708922861806],
          [-84.0731966902104, 9.930605510294825],
          [-84.07316351640365, 9.930726881151557],
          [-84.07309716879024, 9.930862256283518],
          [-84.07300238648578, 9.930997631359503],
          [-84.07284125656794, 9.931147010690182],
          [-84.07140530097948, 9.931926582636763],
          [-84.07116360610301, 9.932038616823434],
          [-84.07071865309837, 9.932139351680263],
          [-84.07042778946453, 9.93217068809497],
          [-84.07006648229411, 9.932166211465201],
          [-84.06984833351532, 9.932146063354523],
          [-84.06972108067512, 9.932132633461478],
          [-84.06957564885856, 9.93208786714824],
          [-84.06944385127427, 9.932034147563229],
          [-84.06916207712864, 9.931908801831455],
          [-84.06825767138174, 9.931429800039211],
          [-84.06817132123984, 9.931391748590514],
          [-84.0679804419802, 9.931326837286917],
          [-84.06777592848765, 9.931275355899302],
          [-84.0675509636456, 9.931235066111327],
          [-84.0672532828953, 9.931232827790026],
          [-84.06697605515558, 9.93126864358453],
          [-84.06659656900807, 9.931425326047659],
          [-84.06575579131594, 9.931937901009945],
          [-84.06556264300676, 9.932022955697207],
          [-84.0654149388178, 9.932061007072605],
          [-84.06523314904639, 9.932052053807396],
          [-84.06502636318143, 9.932007287483174],
          [-84.06451507744424, 9.931872986714481],
          [-84.06420149008922, 9.931808075506382],
          [-84.06390835408301, 9.9317745007381],
          [-84.06356749826202, 9.931752117557721],
          [-84.06329481360527, 9.931770024102917],
          [-84.0631084797329, 9.931857320017158],
          [-84.06291987284503, 9.931993857350506],
          [-84.06280170949373, 9.932096819892877],
          [-84.06264946056062, 9.932262455217767],
          [-84.06253584195343, 9.93244599696699],
          [-84.06244721943979, 9.932712356151981],
          [-84.06242222540362, 9.932893660539492],
          [-84.06241768065888, 9.93303467405957],
          [-84.06242677014775, 9.933133159656634],
          [-84.06244267675247, 9.933200308910969],
          [-84.06254266112668, 9.93344652272215],
          [-84.06257901908083, 9.933515910217778],
          [-84.06267218633857, 9.933630063807144],
          [-84.06284488662178, 9.933764362096696],
          [-84.06299259081074, 9.933824796309608],
          [-84.06318574261337, 9.933880753799457],
          [-84.06327436512701, 9.933894183620751],
          [-84.06343115880483, 9.933900898531164],
          [-84.06357659062144, 9.933885230407057],
          [-84.06370611583334, 9.9338606090665],
          [-84.06434010766051, 9.933688259636028],
          [-84.06481503379342, 9.933589773816749],
          [-84.06505363286776, 9.933556199232555],
          [-84.0653354070134, 9.93354276939742],
          [-84.06591031717277, 9.933594250064417],
          [-84.06611710303706, 9.933625586341122],
          [-84.06633297839089, 9.93367035244394],
          [-84.06648522732398, 9.933717356846245],
          [-84.06700332684977, 9.933947901528882],
          [-84.06713966917816, 9.934012812312417],
          [-84.06894393176486, 9.934861126347059]
        ],
        "type": "LineString"
      }
    }
  ]
}
