{
  "type": "FeatureCollection",
  "features": [
    {
      "type": "Feature",
      "geometry": {
        "type": "LineString",
        "coordinates": [
          [
            -83.9110459,
            9.8642123
          ],
          [
            -83.9114518,
            9.8643349
          ],
          [
            -83.9121174,
            9.8644309
          ],
          [
            -83.9123632,
            9.8644716
          ],
          [
            -83.9125853,
            9.8645267
          ],
          [
            -83.9126928,
            9.8645746
          ],
          [
            -83.9128804,
            9.8646922
          ],
          [
            -83.9132446,
            9.8649913
          ],
          [
            -83.9135677,
            9.8652627
          ],
          [
            -83.9138491,
            9.8654386
          ],
          [
            -83.9140254,
            9.8655346
          ],
          [
            -83.9140955,
            9.8655617
          ],
          [
            -83.9143687,
            9.8655981
          ],
          [
            -83.9151578,
            9.8657058
          ],
          [
            -83.916303,
            9.8658705
          ],
          [
            -83.9174207,
            9.8660269
          ],
          [
            -83.9182823,
            9.8661524
          ],
          [
            -83.9191502,
            9.8662708
          ],
          [
            -83.9196759,
            9.866339
          ],
          [
            -83.9202666,
            9.866417
          ],
          [
            -83.9202814,
            9.866419
          ],
          [
            -83.9208598,
            9.8664981
          ],
          [
            -83.9213116,
            9.8665587
          ],
          [
            -83.9217123,
            9.8666152
          ],
          [
            -83.9218706,
            9.8664734
          ],
          [
            -83.9218547,
            9.8665885
          ],
          [
            -83.9220109,
            9.8666535
          ],
          [
            -83.9221963,
            9.8665187
          ],
          [
            -83.9221821,
            9.8666338
          ],
          [
            -83.9226176,
            9.8667357
          ],
          [
            -83.9229151,
            9.8667925
          ],
          [
            -83.9229519,
            9.8668046
          ],
          [
            -83.9229808,
            9.866821
          ],
          [
            -83.9230201,
            9.8668423
          ],
          [
            -83.9230633,
            9.8668837
          ],
          [
            -83.9230906,
            9.8669114
          ],
          [
            -83.9231486,
            9.8669703
          ],
          [
            -83.9234268,
            9.8672316
          ],
          [
            -83.9241643,
            9.8680098
          ],
          [
            -83.9246135,
            9.8685145
          ],
          [
            -83.9248787,
            9.8687844
          ],
          [
            -83.9249491,
            9.8688608
          ],
          [
            -83.9250333,
            9.8689621
          ],
          [
            -83.9251884,
            9.8691459
          ],
          [
            -83.9253652,
            9.8694095
          ],
          [
            -83.925541,
            9.869811
          ],
          [
            -83.925582,
            9.8699221
          ],
          [
            -83.9264436,
            9.8714963
          ],
          [
            -83.9267115,
            9.8719095
          ],
          [
            -83.9271173,
            9.8725519
          ],
          [
            -83.9273636,
            9.8729091
          ],
          [
            -83.9280007,
            9.8738334
          ],
          [
            -83.9282554,
            9.8742333
          ],
          [
            -83.928316,
            9.8743219
          ],
          [
            -83.9286388,
            9.8747936
          ],
          [
            -83.9289284,
            9.8752853
          ],
          [
            -83.9295485,
            9.8763641
          ],
          [
            -83.9297052,
            9.8766736
          ],
          [
            -83.9298447,
            9.8770594
          ],
          [
            -83.9298844,
            9.87721
          ],
          [
            -83.929952,
            9.8774663
          ],
          [
            -83.9300003,
            9.8780054
          ],
          [
            -83.9300243,
            9.8784703
          ],
          [
            -83.9300082,
            9.8786728
          ],
          [
            -83.929986,
            9.8789573
          ],
          [
            -83.9298731,
            9.880995
          ],
          [
            -83.9298233,
            9.8819637
          ],
          [
            -83.9297803,
            9.8826772
          ],
          [
            -83.929716,
            9.8834857
          ],
          [
            -83.929717,
            9.8836708
          ],
          [
            -83.92972,
            9.8837919
          ],
          [
            -83.9296,
            9.8855684
          ],
          [
            -83.9295496,
            9.8865816
          ],
          [
            -83.9295497,
            9.8868363
          ],
          [
            -83.9295621,
            9.8870637
          ],
          [
            -83.9295706,
            9.887249
          ],
          [
            -83.9295734,
            9.8873912
          ],
          [
            -83.9296033,
            9.8877453
          ],
          [
            -83.9296118,
            9.8879441
          ],
          [
            -83.9299037,
            9.888501
          ],
          [
            -83.9300258,
            9.8886768
          ],
          [
            -83.9301827,
            9.8888604
          ],
          [
            -83.9305095,
            9.8891048
          ],
          [
            -83.9309283,
            9.889299
          ],
          [
            -83.9311103,
            9.889387
          ],
          [
            -83.9314053,
            9.8894628
          ],
          [
            -83.9318183,
            9.8894839
          ],
          [
            -83.932226,
            9.8894469
          ],
          [
            -83.9325908,
            9.8894205
          ],
          [
            -83.932682,
            9.8893993
          ],
          [
            -83.9328047,
            9.8893945
          ],
          [
            -83.9329502,
            9.8893888
          ],
          [
            -83.9333365,
            9.8895209
          ],
          [
            -83.9339748,
            9.889801
          ],
          [
            -83.9343128,
            9.8899965
          ],
          [
            -83.9345027,
            9.890265
          ],
          [
            -83.9345381,
            9.8904352
          ],
          [
            -83.9345435,
            9.8905461
          ],
          [
            -83.9345488,
            9.8906994
          ],
          [
            -83.9345649,
            9.8908421
          ],
          [
            -83.934581,
            9.8910376
          ],
          [
            -83.9346186,
            9.8911644
          ],
          [
            -83.9346668,
            9.8912913
          ],
          [
            -83.9347259,
            9.8914128
          ],
          [
            -83.9347902,
            9.8915291
          ],
          [
            -83.9348975,
            9.8916612
          ],
          [
            -83.9349994,
            9.8917193
          ],
          [
            -83.9351604,
            9.8918567
          ],
          [
            -83.935273,
            9.8919149
          ],
          [
            -83.9354501,
            9.8919888
          ],
          [
            -83.9355949,
            9.8919941
          ],
          [
            -83.9357719,
            9.8919783
          ],
          [
            -83.935965,
            9.8919466
          ],
          [
            -83.9360509,
            9.8919307
          ],
          [
            -83.9362064,
            9.891899
          ],
          [
            -83.9363781,
            9.891862
          ],
          [
            -83.9365498,
            9.8918409
          ],
          [
            -83.9367643,
            9.8917827
          ],
          [
            -83.936936,
            9.8917193
          ],
          [
            -83.937113,
            9.8916823
          ],
          [
            -83.9372525,
            9.8916242
          ],
          [
            -83.9374027,
            9.8915766
          ],
          [
            -83.9375529,
            9.8915449
          ],
          [
            -83.9376709,
            9.8915185
          ],
          [
            -83.9377836,
            9.8914974
          ],
          [
            -83.9379767,
            9.891434
          ],
          [
            -83.9381323,
            9.8914181
          ],
          [
            -83.9384219,
            9.8913864
          ],
          [
            -83.938658,
            9.8913917
          ],
          [
            -83.9388618,
            9.8914234
          ],
          [
            -83.9392051,
            9.8915079
          ],
          [
            -83.9395109,
            9.8916136
          ],
          [
            -83.9397899,
            9.8917563
          ],
          [
            -83.9401783,
            9.8919984
          ],
          [
            -83.9405906,
            9.8923058
          ],
          [
            -83.9409861,
            9.8927023
          ],
          [
            -83.9413509,
            9.8931673
          ],
          [
            -83.9415709,
            9.893458
          ],
          [
            -83.9421506,
            9.894144
          ],
          [
            -83.9424238,
            9.8944673
          ],
          [
            -83.9428336,
            9.8950159
          ],
          [
            -83.9429549,
            9.895297
          ],
          [
            -83.9430999,
            9.8956771
          ],
          [
            -83.9432944,
            9.8961998
          ],
          [
            -83.9435396,
            9.8966975
          ],
          [
            -83.9437001,
            9.8970969
          ],
          [
            -83.9437981,
            9.8973096
          ],
          [
            -83.9439441,
            9.8975684
          ],
          [
            -83.9441941,
            9.8979552
          ],
          [
            -83.9446125,
            9.8985946
          ],
          [
            -83.9451382,
            9.8994296
          ],
          [
            -83.9454118,
            9.9000109
          ],
          [
            -83.9455942,
            9.9002804
          ],
          [
            -83.9458624,
            9.9005552
          ],
          [
            -83.9462272,
            9.9008723
          ],
          [
            -83.9466939,
            9.9012105
          ],
          [
            -83.9470426,
            9.9013584
          ],
          [
            -83.9475375,
            9.9015032
          ],
          [
            -83.9477961,
            9.9015634
          ],
          [
            -83.9490483,
            9.9016539
          ],
          [
            -83.9491052,
            9.901658
          ],
          [
            -83.9497632,
            9.9017055
          ],
          [
            -83.9509529,
            9.9017796
          ],
          [
            -83.9518453,
            9.9018114
          ],
          [
            -83.9523534,
            9.9018802
          ],
          [
            -83.9528499,
            9.9020322
          ],
          [
            -83.9535909,
            9.9024239
          ],
          [
            -83.9543088,
            9.9029474
          ],
          [
            -83.9543334,
            9.9029618
          ],
          [
            -83.9547239,
            9.9031789
          ],
          [
            -83.9552775,
            9.9033441
          ],
          [
            -83.955898,
            9.9036005
          ],
          [
            -83.9565592,
            9.9039804
          ],
          [
            -83.9570587,
            9.9044655
          ],
          [
            -83.957465,
            9.9051114
          ],
          [
            -83.9575944,
            9.9056104
          ],
          [
            -83.9576818,
            9.9060192
          ],
          [
            -83.9577942,
            9.9064042
          ],
          [
            -83.9580941,
            9.9068461
          ],
          [
            -83.9585498,
            9.9072681
          ],
          [
            -83.9591067,
            9.9075111
          ],
          [
            -83.9602888,
            9.9079742
          ],
          [
            -83.9614304,
            9.9084646
          ],
          [
            -83.9622286,
            9.9089043
          ],
          [
            -83.9627998,
            9.9093618
          ],
          [
            -83.962974,
            9.9095014
          ],
          [
            -83.9636878,
            9.9099355
          ],
          [
            -83.9643164,
            9.9105146
          ],
          [
            -83.9647914,
            9.9109849
          ],
          [
            -83.9653884,
            9.9111746
          ],
          [
            -83.9664944,
            9.9114408
          ],
          [
            -83.9680997,
            9.9119486
          ],
          [
            -83.9690973,
            9.9118917
          ],
          [
            -83.9695849,
            9.9118892
          ],
          [
            -83.9698783,
            9.911917
          ],
          [
            -83.9700454,
            9.9119313
          ],
          [
            -83.9704276,
            9.9120098
          ],
          [
            -83.9714833,
            9.9126354
          ],
          [
            -83.9718867,
            9.9129567
          ],
          [
            -83.9723158,
            9.9132949
          ],
          [
            -83.972519,
            9.9134668
          ],
          [
            -83.9733372,
            9.9139882
          ],
          [
            -83.9738265,
            9.9141742
          ],
          [
            -83.9743913,
            9.9143314
          ],
          [
            -83.9745486,
            9.9143552
          ],
          [
            -83.9752925,
            9.9145129
          ],
          [
            -83.9763347,
            9.9147533
          ],
          [
            -83.9769586,
            9.914775
          ],
          [
            -83.9771309,
            9.9147745
          ],
          [
            -83.9776051,
            9.9146264
          ],
          [
            -83.97765,
            9.9146124
          ],
          [
            -83.9778348,
            9.9145547
          ],
          [
            -83.9780471,
            9.9144615
          ],
          [
            -83.9784779,
            9.9142724
          ],
          [
            -83.9794913,
            9.9138555
          ],
          [
            -83.9800144,
            9.9135416
          ],
          [
            -83.9804895,
            9.9131404
          ],
          [
            -83.9807244,
            9.9129918
          ],
          [
            -83.9811159,
            9.9128358
          ],
          [
            -83.981799,
            9.9126733
          ],
          [
            -83.9818516,
            9.9126608
          ],
          [
            -83.982667,
            9.9125593
          ],
          [
            -83.9830433,
            9.9125147
          ],
          [
            -83.9834759,
            9.9123817
          ],
          [
            -83.9839577,
            9.9121579
          ],
          [
            -83.984048,
            9.9121112
          ],
          [
            -83.9841412,
            9.9120629
          ],
          [
            -83.9845856,
            9.9117494
          ],
          [
            -83.9847465,
            9.9116173
          ],
          [
            -83.9850303,
            9.911424
          ],
          [
            -83.9853218,
            9.9112132
          ],
          [
            -83.9856559,
            9.9110254
          ],
          [
            -83.986272,
            9.9107363
          ],
          [
            -83.9867094,
            9.9105927
          ],
          [
            -83.9868888,
            9.9105739
          ],
          [
            -83.9869691,
            9.9105077
          ],
          [
            -83.9872009,
            9.9104425
          ],
          [
            -83.9875411,
            9.9103557
          ],
          [
            -83.9878401,
            9.9103088
          ],
          [
            -83.9880941,
            9.910283
          ],
          [
            -83.9881061,
            9.9102818
          ],
          [
            -83.9886537,
            9.9102375
          ],
          [
            -83.9894734,
            9.9101835
          ],
          [
            -83.9901085,
            9.9103103
          ],
          [
            -83.9907008,
            9.9104033
          ],
          [
            -83.9914389,
            9.9106908
          ],
          [
            -83.9923573,
            9.9112657
          ],
          [
            -83.9926921,
            9.9114517
          ],
          [
            -83.9930611,
            9.9115194
          ],
          [
            -83.9949236,
            9.9114348
          ],
          [
            -83.9960366,
            9.9114421
          ],
          [
            -83.9962283,
            9.9114433
          ],
          [
            -83.9977217,
            9.9118745
          ],
          [
            -83.998314,
            9.9120605
          ],
          [
            -83.9990435,
            9.9120351
          ],
          [
            -83.9995413,
            9.9118914
          ],
          [
            -84.0005026,
            9.911494
          ],
          [
            -84.0017472,
            9.9113672
          ],
          [
            -84.0030914,
            9.9113324
          ],
          [
            -84.0038849,
            9.9112602
          ],
          [
            -84.0040823,
            9.9112194
          ],
          [
            -84.004366,
            9.911135
          ],
          [
            -84.0046627,
            9.9110028
          ],
          [
            -84.005587,
            9.9105714
          ],
          [
            -84.0059506,
            9.9104173
          ],
          [
            -84.0063048,
            9.9102815
          ],
          [
            -84.0066221,
            9.9102227
          ],
          [
            -84.0068953,
            9.9102115
          ],
          [
            -84.0071593,
            9.9102187
          ],
          [
            -84.0075614,
            9.9102602
          ],
          [
            -84.007886,
            9.9103313
          ],
          [
            -84.0081755,
            9.9104576
          ],
          [
            -84.0085133,
            9.9106631
          ],
          [
            -84.0088368,
            9.9108768
          ],
          [
            -84.0098582,
            9.9116124
          ],
          [
            -84.0110083,
            9.9124494
          ],
          [
            -84.0115461,
            9.9128539
          ],
          [
            -84.0118843,
            9.9132405
          ],
          [
            -84.0121654,
            9.9136077
          ],
          [
            -84.0127051,
            9.9142739
          ],
          [
            -84.0129186,
            9.9144665
          ],
          [
            -84.0131525,
            9.914611
          ],
          [
            -84.0133958,
            9.9147103
          ],
          [
            -84.0136411,
            9.9147876
          ],
          [
            -84.0138516,
            9.9148197
          ],
          [
            -84.0141068,
            9.9148337
          ],
          [
            -84.0147246,
            9.9147936
          ],
          [
            -84.0151757,
            9.9148455
          ],
          [
            -84.0156556,
            9.9150049
          ],
          [
            -84.0158445,
            9.9151089
          ],
          [
            -84.016374,
            9.9155505
          ],
          [
            -84.0165045,
            9.9156664
          ],
          [
            -84.0168981,
            9.9160715
          ],
          [
            -84.0172445,
            9.9164094
          ],
          [
            -84.017423,
            9.9165551
          ],
          [
            -84.0175785,
            9.9166796
          ],
          [
            -84.0177986,
            9.9168377
          ],
          [
            -84.017991,
            9.9169387
          ],
          [
            -84.0181155,
            9.9169802
          ],
          [
            -84.0182617,
            9.9170051
          ],
          [
            -84.0184234,
            9.917013
          ],
          [
            -84.0185958,
            9.9169981
          ],
          [
            -84.0190678,
            9.9168544
          ],
          [
            -84.019497,
            9.9167783
          ],
          [
            -84.0200463,
            9.9168629
          ],
          [
            -84.0204325,
            9.9170742
          ],
          [
            -84.0208473,
            9.9174936
          ],
          [
            -84.0210848,
            9.9177337
          ],
          [
            -84.0216427,
            9.9182072
          ],
          [
            -84.0220547,
            9.918427
          ],
          [
            -84.0223466,
            9.9185538
          ],
          [
            -84.0228107,
            9.9186834
          ],
          [
            -84.023492,
            9.9190639
          ],
          [
            -84.0238499,
            9.9192772
          ],
          [
            -84.0238997,
            9.9193069
          ],
          [
            -84.0244604,
            9.9196352
          ],
          [
            -84.0247733,
            9.9197594
          ],
          [
            -84.0251423,
            9.9198192
          ],
          [
            -84.0255766,
            9.9198192
          ],
          [
            -84.0259735,
            9.9197364
          ],
          [
            -84.0268235,
            9.91958
          ],
          [
            -84.0272484,
            9.9195248
          ],
          [
            -84.0275707,
            9.9195202
          ],
          [
            -84.0279349,
            9.919603
          ],
          [
            -84.0282919,
            9.9197579
          ],
          [
            -84.0287662,
            9.9200446
          ],
          [
            -84.0301829,
            9.9208873
          ],
          [
            -84.030715,
            9.9212086
          ],
          [
            -84.0311536,
            9.9213888
          ],
          [
            -84.0314327,
            9.9214384
          ],
          [
            -84.0316943,
            9.9214568
          ],
          [
            -84.0323249,
            9.9214558
          ],
          [
            -84.0328431,
            9.921466
          ],
          [
            -84.0331908,
            9.9215253
          ],
          [
            -84.0336197,
            9.921769
          ],
          [
            -84.0340096,
            9.9221199
          ],
          [
            -84.0348031,
            9.9228788
          ],
          [
            -84.034867,
            9.9229399
          ],
          [
            -84.0350499,
            9.9231428
          ],
          [
            -84.0353344,
            9.9234597
          ],
          [
            -84.0371297,
            9.9252818
          ],
          [
            -84.0391439,
            9.9273253
          ],
          [
            -84.0394379,
            9.9276345
          ],
          [
            -84.0417014,
            9.9300262
          ],
          [
            -84.0418368,
            9.9304082
          ],
          [
            -84.0419831,
            9.9309168
          ],
          [
            -84.0421986,
            9.9312972
          ],
          [
            -84.0424946,
            9.93169
          ],
          [
            -84.0426701,
            9.9319024
          ],
          [
            -84.0429751,
            9.9321414
          ],
          [
            -84.043285,
            9.9323369
          ],
          [
            -84.0435545,
            9.9324705
          ],
          [
            -84.0438187,
            9.9325526
          ],
          [
            -84.0439976,
            9.9326027
          ],
          [
            -84.0444387,
            9.9326307
          ],
          [
            -84.0448184,
            9.932641
          ],
          [
            -84.0448899,
            9.9326429
          ],
          [
            -84.0450655,
            9.9326469
          ],
          [
            -84.045777,
            9.9326892
          ],
          [
            -84.0467622,
            9.9327383
          ],
          [
            -84.0469136,
            9.9327561
          ],
          [
            -84.0477108,
            9.9328589
          ],
          [
            -84.0481679,
            9.9329369
          ],
          [
            -84.0493276,
            9.9332136
          ],
          [
            -84.0495966,
            9.9332674
          ],
          [
            -84.0503073,
            9.9334745
          ],
          [
            -84.051054,
            9.9336837
          ],
          [
            -84.0521666,
            9.9339859
          ],
          [
            -84.0523175,
            9.9340324
          ],
          [
            -84.05241899,
            9.9340346
          ],
          [
            -84.0528887,
            9.9341796
          ],
          [
            -84.0536339,
            9.9344104
          ],
          [
            -84.0537972,
            9.9344573
          ],
          [
            -84.0553234,
            9.9349123
          ],
          [
            -84.0554471,
            9.9349514
          ],
          [
            -84.0555179,
            9.9349716
          ],
          [
            -84.0559143,
            9.935085
          ],
          [
            -84.056271,
            9.9351827
          ],
          [
            -84.0566251,
            9.9352778
          ],
          [
            -84.0570515,
            9.9353809
          ],
          [
            -84.0573417,
            9.9354263
          ],
          [
            -84.0576149,
            9.9354447
          ],
          [
            -84.0577088,
            9.9354472
          ],
          [
            -84.0578346,
            9.935449
          ],
          [
            -84.0578951,
            9.9354493
          ],
          [
            -84.0582103,
            9.935424
          ],
          [
            -84.0585294,
            9.9353703
          ],
          [
            -84.0599349,
            9.934974
          ],
          [
            -84.0607128,
            9.9347494
          ],
          [
            -84.0612067,
            9.9346013
          ],
          [
            -84.0613648,
            9.9345539
          ],
          [
            -84.0621665,
            9.9343135
          ],
          [
            -84.0635476,
            9.9339051
          ],
          [
            -84.0637196,
            9.93386
          ],
          [
            -84.0643327,
            9.9336919
          ],
          [
            -84.0648111,
            9.9335883
          ],
          [
            -84.0649459,
            9.9335683
          ],
          [
            -84.0650526,
            9.9335552
          ],
          [
            -84.0653349,
            9.9335423
          ],
          [
            -84.0656888,
            9.9335718
          ],
          [
            -84.0661287,
            9.9336275
          ],
          [
            -84.066215,
            9.9336442
          ],
          [
            -84.0662543,
            9.9336536
          ],
          [
            -84.0666193,
            9.9337832
          ],
          [
            -84.0670711,
            9.9340078
          ],
          [
            -84.0672424,
            9.9340801
          ],
          [
            -84.0674254,
            9.9341662
          ],
          [
            -84.0677596,
            9.9343165
          ],
          [
            -84.067946,
            9.9343972
          ],
          [
            -84.0686116,
            9.9347342
          ],
          [
            -84.068614,
            9.9347298
          ],
          [
            -84.0687269,
            9.9347849
          ],
          [
            -84.0689369,
            9.9348741
          ]
        ]
      },
      "properties": {
        "shape_id": "angeles_atlantico"
      }
    }
  ]
}