{
  "type": "FeatureCollection",
  "features": [
    {
      "type": "Feature",
      "geometry": {
        "type": "LineString",
        "coordinates": [
          [
            -84.1498934,
            9.955766
          ],
          [
            -84.1497053,
            9.9556673
          ],
          [
            -84.1485207,
            9.955132
          ],
          [
            -84.1468083,
            9.9543582
          ],
          [
            -84.1465164,
            9.9541803
          ],
          [
            -84.1462897,
            9.9539983
          ],
          [
            -84.1461154,
            9.9537889
          ],
          [
            -84.1460022,
            9.9535703
          ],
          [
            -84.1448767,
            9.9512865
          ],
          [
            -84.1440943,
            9.9498709
          ],
          [
            -84.1440878,
            9.9498597
          ],
          [
            -84.1437941,
            9.9493497
          ],
          [
            -84.1433056,
            9.9484209
          ],
          [
            -84.1430724,
            9.9481148
          ],
          [
            -84.1427591,
            9.9478248
          ],
          [
            -84.1424505,
            9.9476398
          ],
          [
            -84.1421,
            9.947496
          ],
          [
            -84.1400628,
            9.9469399
          ],
          [
            -84.1380366,
            9.9463192
          ],
          [
            -84.1374652,
            9.9461457
          ],
          [
            -84.136453,
            9.9457991
          ],
          [
            -84.1362038,
            9.9456094
          ],
          [
            -84.1359982,
            9.945368
          ],
          [
            -84.1358763,
            9.9451345
          ],
          [
            -84.1358105,
            9.9448979
          ],
          [
            -84.1358265,
            9.9444947
          ],
          [
            -84.1358491,
            9.9441934
          ],
          [
            -84.1358682,
            9.9439874
          ],
          [
            -84.1359248,
            9.9434921
          ],
          [
            -84.1360214,
            9.9426069
          ],
          [
            -84.1361333,
            9.9417103
          ],
          [
            -84.1361764,
            9.941222
          ],
          [
            -84.1361691,
            9.9410177
          ],
          [
            -84.1361434,
            9.940893
          ],
          [
            -84.1361264,
            9.9408153
          ],
          [
            -84.1361102,
            9.9407782
          ],
          [
            -84.1360783,
            9.9407277
          ],
          [
            -84.1359072,
            9.9404913
          ],
          [
            -84.1357196,
            9.9403245
          ],
          [
            -84.13544,
            9.9402052
          ],
          [
            -84.1352011,
            9.9401443
          ],
          [
            -84.1351584,
            9.9401334
          ],
          [
            -84.1351172,
            9.940129
          ],
          [
            -84.1346063,
            9.9400741
          ],
          [
            -84.1342488,
            9.9400393
          ],
          [
            -84.1335334,
            9.9399761
          ],
          [
            -84.1333511,
            9.93996
          ],
          [
            -84.1324677,
            9.9399541
          ],
          [
            -84.1315596,
            9.9399871
          ],
          [
            -84.130606,
            9.9400121
          ],
          [
            -84.1273819,
            9.9401569
          ],
          [
            -84.1237316,
            9.9403739
          ],
          [
            -84.1237152,
            9.9402355
          ],
          [
            -84.1235259,
            9.9402396
          ],
          [
            -84.1227607,
            9.9401587
          ],
          [
            -84.1220143,
            9.9398456
          ],
          [
            -84.1213764,
            9.9393833
          ],
          [
            -84.1207226,
            9.9386357
          ],
          [
            -84.1205828,
            9.9384759
          ],
          [
            -84.1202932,
            9.9382944
          ],
          [
            -84.1196425,
            9.9379988
          ],
          [
            -84.1193668,
            9.9378877
          ],
          [
            -84.1174587,
            9.9371184
          ],
          [
            -84.1171187,
            9.9370198
          ],
          [
            -84.1167884,
            9.9369684
          ],
          [
            -84.1163195,
            9.9368955
          ],
          [
            -84.1157881,
            9.9367966
          ],
          [
            -84.1156674,
            9.9367783
          ],
          [
            -84.1154394,
            9.9367621
          ],
          [
            -84.1150989,
            9.936775
          ],
          [
            -84.1144471,
            9.9367909
          ],
          [
            -84.1138061,
            9.936775
          ],
          [
            -84.1135567,
            9.9367592
          ],
          [
            -84.1133448,
            9.9366958
          ],
          [
            -84.1132214,
            9.9366324
          ],
          [
            -84.1131141,
            9.9365531
          ],
          [
            -84.1130095,
            9.9364527
          ],
          [
            -84.1129085,
            9.9363284
          ],
          [
            -84.1128082,
            9.9361774
          ],
          [
            -84.1127559,
            9.9360803
          ],
          [
            -84.1127081,
            9.9359513
          ],
          [
            -84.1126773,
            9.9358435
          ],
          [
            -84.1126616,
            9.935707
          ],
          [
            -84.1126823,
            9.9354121
          ],
          [
            -84.1126877,
            9.9347997
          ],
          [
            -84.1125672,
            9.9344853
          ],
          [
            -84.1123171,
            9.9341474
          ],
          [
            -84.1119459,
            9.9338354
          ],
          [
            -84.1114284,
            9.9336421
          ],
          [
            -84.1103089,
            9.9335372
          ],
          [
            -84.1099142,
            9.9334995
          ],
          [
            -84.1014151,
            9.9326563
          ],
          [
            -84.1014158,
            9.9326467
          ],
          [
            -84.0987077,
            9.9324057
          ],
          [
            -84.0984424,
            9.9323793
          ],
          [
            -84.0982979,
            9.9323627
          ],
          [
            -84.0982177,
            9.9323561
          ],
          [
            -84.0977075,
            9.9323003
          ],
          [
            -84.097488,
            9.9322482
          ],
          [
            -84.0972603,
            9.9321681
          ],
          [
            -84.096875,
            9.9320095
          ],
          [
            -84.0962424,
            9.9316947
          ],
          [
            -84.0947073,
            9.9308862
          ],
          [
            -84.0946484,
            9.9308313
          ],
          [
            -84.0944314,
            9.9306868
          ],
          [
            -84.0942428,
            9.9305382
          ],
          [
            -84.0940513,
            9.9303611
          ],
          [
            -84.0939136,
            9.9302116
          ],
          [
            -84.0937125,
            9.9299259
          ],
          [
            -84.0930263,
            9.9289052
          ],
          [
            -84.0927599,
            9.928478
          ],
          [
            -84.0925688,
            9.9282132
          ],
          [
            -84.09210541,
            9.92750186
          ],
          [
            -84.0919248,
            9.9273064
          ],
          [
            -84.0918611,
            9.9271319
          ],
          [
            -84.0917519,
            9.9269607
          ],
          [
            -84.0914501,
            9.9264878
          ],
          [
            -84.091254,
            9.9261842
          ],
          [
            -84.09114,
            9.9260257
          ],
          [
            -84.0910992,
            9.9259689
          ],
          [
            -84.0910545,
            9.9259238
          ],
          [
            -84.0909738,
            9.9258116
          ],
          [
            -84.0907566,
            9.9256598
          ],
          [
            -84.0906049,
            9.9255816
          ],
          [
            -84.0904344,
            9.9255076
          ],
          [
            -84.0898437,
            9.9253976
          ],
          [
            -84.0892389,
            9.9252757
          ],
          [
            -84.0874217,
            9.924989
          ],
          [
            -84.0870523,
            9.9249764
          ],
          [
            -84.0868748,
            9.9250369
          ],
          [
            -84.0864369,
            9.9252137
          ],
          [
            -84.0861128,
            9.9253837
          ],
          [
            -84.0856152,
            9.9255773
          ],
          [
            -84.0853768,
            9.9256818
          ],
          [
            -84.0850864,
            9.9257564
          ],
          [
            -84.084703,
            9.9258029
          ],
          [
            -84.0844052,
            9.9258004
          ],
          [
            -84.0836314,
            9.9257294
          ],
          [
            -84.0811014,
            9.9253945
          ]
        ]
      },
      "properties": {
        "shape_id": "metropoli_pacifico"
      }
    }
  ]
}