{
  "type": "FeatureCollection",
  "features": [
    {
      "type": "Feature",
      "geometry": {
        "type": "LineString",
        "coordinates": [
          [
            -83.8901,
            9.850563
          ],
          [
            -83.9053,
            9.861238
          ],
          [
            -83.911,
            9.864212
          ],
          [
            -83.9115,
            9.864335
          ],
          [
            -83.9121,
            9.864431
          ],
          [
            -83.9124,
            9.864472
          ],
          [
            -83.9126,
            9.864527
          ],
          [
            -83.9127,
            9.864575
          ],
          [
            -83.9129,
            9.864692
          ],
          [
            -83.9132,
            9.864991
          ],
          [
            -83.9136,
            9.865263
          ],
          [
            -83.9138,
            9.865439
          ],
          [
            -83.914,
            9.865535
          ],
          [
            -83.9141,
            9.865562
          ],
          [
            -83.9144,
            9.865598
          ],
          [
            -83.9152,
            9.865706
          ],
          [
            -83.9163,
            9.865871
          ],
          [
            -83.9174,
            9.866027
          ],
          [
            -83.9183,
            9.866152
          ],
          [
            -83.9192,
            9.866271
          ],
          [
            -83.9197,
            9.866339
          ],
          [
            -83.9203,
            9.866417
          ],
          [
            -83.9203,
            9.866419
          ],
          [
            -83.9209,
            9.866498
          ],
          [
            -83.9213,
            9.866559
          ],
          [
            -83.9217,
            9.866615
          ],
          [
            -83.9219,
            9.866473
          ],
          [
            -83.9219,
            9.866589
          ],
          [
            -83.922,
            9.866654
          ],
          [
            -83.9222,
            9.866519
          ],
          [
            -83.9222,
            9.866634
          ],
          [
            -83.9226,
            9.866736
          ],
          [
            -83.9229,
            9.866793
          ],
          [
            -83.923,
            9.866805
          ],
          [
            -83.923,
            9.866821
          ],
          [
            -83.923,
            9.866842
          ],
          [
            -83.9231,
            9.866884
          ],
          [
            -83.9231,
            9.866911
          ],
          [
            -83.9231,
            9.86697
          ],
          [
            -83.9234,
            9.867232
          ],
          [
            -83.9242,
            9.86801
          ],
          [
            -83.9246,
            9.868515
          ],
          [
            -83.9249,
            9.868784
          ],
          [
            -83.9249,
            9.868861
          ],
          [
            -83.925,
            9.868962
          ],
          [
            -83.9252,
            9.869146
          ],
          [
            -83.9254,
            9.86941
          ],
          [
            -83.9255,
            9.869811
          ],
          [
            -83.9256,
            9.869922
          ],
          [
            -83.9264,
            9.871496
          ],
          [
            -83.9267,
            9.87191
          ],
          [
            -83.9271,
            9.872552
          ],
          [
            -83.9274,
            9.872909
          ],
          [
            -83.928,
            9.873833
          ],
          [
            -83.9283,
            9.874233
          ],
          [
            -83.9283,
            9.874322
          ],
          [
            -83.9286,
            9.874794
          ],
          [
            -83.9289,
            9.875285
          ],
          [
            -83.9295,
            9.876364
          ],
          [
            -83.9297,
            9.876674
          ],
          [
            -83.9298,
            9.877059
          ],
          [
            -83.9299,
            9.87721
          ],
          [
            -83.93,
            9.877466
          ],
          [
            -83.93,
            9.878005
          ],
          [
            -83.93,
            9.87847
          ],
          [
            -83.93,
            9.878673
          ],
          [
            -83.93,
            9.878957
          ],
          [
            -83.9299,
            9.880995
          ],
          [
            -83.9298,
            9.881964
          ],
          [
            -83.9298,
            9.882677
          ],
          [
            -83.9297,
            9.883486
          ],
          [
            -83.9297,
            9.883671
          ],
          [
            -83.9297,
            9.883792
          ],
          [
            -83.9296,
            9.885568
          ],
          [
            -83.9295,
            9.886582
          ],
          [
            -83.9295,
            9.886836
          ],
          [
            -83.9296,
            9.887064
          ],
          [
            -83.9296,
            9.887249
          ],
          [
            -83.9296,
            9.887391
          ],
          [
            -83.9296,
            9.887745
          ],
          [
            -83.9296,
            9.887944
          ],
          [
            -83.9299,
            9.888501
          ],
          [
            -83.93,
            9.888677
          ],
          [
            -83.9302,
            9.88886
          ],
          [
            -83.9305,
            9.889105
          ],
          [
            -83.9309,
            9.889299
          ],
          [
            -83.9311,
            9.889387
          ],
          [
            -83.9314,
            9.889463
          ],
          [
            -83.9318,
            9.889484
          ],
          [
            -83.9322,
            9.889447
          ],
          [
            -83.9326,
            9.889421
          ],
          [
            -83.9327,
            9.889399
          ],
          [
            -83.9328,
            9.889395
          ],
          [
            -83.933,
            9.889389
          ],
          [
            -83.9333,
            9.889521
          ],
          [
            -83.934,
            9.889801
          ],
          [
            -83.9343,
            9.889997
          ],
          [
            -83.9345,
            9.890265
          ],
          [
            -83.9345,
            9.890435
          ],
          [
            -83.9345,
            9.890546
          ],
          [
            -83.9345,
            9.890699
          ],
          [
            -83.9346,
            9.890842
          ],
          [
            -83.9346,
            9.891038
          ],
          [
            -83.9346,
            9.891164
          ],
          [
            -83.9347,
            9.891291
          ],
          [
            -83.9347,
            9.891413
          ],
          [
            -83.9348,
            9.891529
          ],
          [
            -83.9349,
            9.891661
          ],
          [
            -83.935,
            9.891719
          ],
          [
            -83.9352,
            9.891857
          ],
          [
            -83.9353,
            9.891915
          ],
          [
            -83.9355,
            9.891989
          ],
          [
            -83.9356,
            9.891994
          ],
          [
            -83.9358,
            9.891978
          ],
          [
            -83.936,
            9.891947
          ],
          [
            -83.9361,
            9.891931
          ],
          [
            -83.9362,
            9.891899
          ],
          [
            -83.9364,
            9.891862
          ],
          [
            -83.9365,
            9.891841
          ],
          [
            -83.9368,
            9.891783
          ],
          [
            -83.9369,
            9.891719
          ],
          [
            -83.9371,
            9.891682
          ],
          [
            -83.9373,
            9.891624
          ],
          [
            -83.9374,
            9.891577
          ],
          [
            -83.9376,
            9.891545
          ],
          [
            -83.9377,
            9.891519
          ],
          [
            -83.9378,
            9.891497
          ],
          [
            -83.938,
            9.891434
          ],
          [
            -83.9381,
            9.891418
          ],
          [
            -83.9384,
            9.891386
          ],
          [
            -83.9387,
            9.891392
          ],
          [
            -83.9389,
            9.891423
          ],
          [
            -83.9392,
            9.891508
          ],
          [
            -83.9395,
            9.891614
          ],
          [
            -83.9398,
            9.891756
          ],
          [
            -83.9402,
            9.891998
          ],
          [
            -83.9406,
            9.892306
          ],
          [
            -83.941,
            9.892702
          ],
          [
            -83.9414,
            9.893167
          ],
          [
            -83.9416,
            9.893458
          ],
          [
            -83.9422,
            9.894144
          ],
          [
            -83.9424,
            9.894467
          ],
          [
            -83.9428,
            9.895016
          ],
          [
            -83.943,
            9.895297
          ],
          [
            -83.9431,
            9.895677
          ],
          [
            -83.9433,
            9.8962
          ],
          [
            -83.9435,
            9.896698
          ],
          [
            -83.9437,
            9.897097
          ],
          [
            -83.9438,
            9.89731
          ],
          [
            -83.9439,
            9.897568
          ],
          [
            -83.9442,
            9.897955
          ],
          [
            -83.9446,
            9.898595
          ],
          [
            -83.9451,
            9.89943
          ],
          [
            -83.9454,
            9.900011
          ],
          [
            -83.9456,
            9.90028
          ],
          [
            -83.9459,
            9.900555
          ],
          [
            -83.9462,
            9.900872
          ],
          [
            -83.9467,
            9.901211
          ],
          [
            -83.947,
            9.901358
          ],
          [
            -83.9475,
            9.901503
          ],
          [
            -83.9478,
            9.901563
          ],
          [
            -83.949,
            9.901654
          ],
          [
            -83.9491,
            9.901658
          ],
          [
            -83.9498,
            9.901706
          ],
          [
            -83.951,
            9.90178
          ],
          [
            -83.9518,
            9.901811
          ],
          [
            -83.9524,
            9.90188
          ],
          [
            -83.9528,
            9.902032
          ],
          [
            -83.9536,
            9.902424
          ],
          [
            -83.9543,
            9.902947
          ],
          [
            -83.9543,
            9.902962
          ],
          [
            -83.9547,
            9.903179
          ],
          [
            -83.9553,
            9.903344
          ],
          [
            -83.9559,
            9.903601
          ],
          [
            -83.9566,
            9.90398
          ],
          [
            -83.9571,
            9.904466
          ],
          [
            -83.9575,
            9.905111
          ],
          [
            -83.9576,
            9.90561
          ],
          [
            -83.9577,
            9.906019
          ],
          [
            -83.9578,
            9.906404
          ],
          [
            -83.9581,
            9.906846
          ],
          [
            -83.9585,
            9.907268
          ],
          [
            -83.9591,
            9.907511
          ],
          [
            -83.9603,
            9.907974
          ],
          [
            -83.9614,
            9.908465
          ],
          [
            -83.9622,
            9.908904
          ],
          [
            -83.9628,
            9.909362
          ],
          [
            -83.963,
            9.909501
          ],
          [
            -83.9637,
            9.909936
          ],
          [
            -83.9643,
            9.910515
          ],
          [
            -83.9648,
            9.910985
          ],
          [
            -83.9654,
            9.911175
          ],
          [
            -83.9665,
            9.911441
          ],
          [
            -83.9681,
            9.911949
          ],
          [
            -83.9691,
            9.911892
          ],
          [
            -83.9696,
            9.911889
          ],
          [
            -83.9699,
            9.911917
          ],
          [
            -83.97,
            9.911931
          ],
          [
            -83.9704,
            9.91201
          ],
          [
            -83.9715,
            9.912635
          ],
          [
            -83.9719,
            9.912957
          ],
          [
            -83.9723,
            9.913295
          ],
          [
            -83.9725,
            9.913467
          ],
          [
            -83.9733,
            9.913988
          ],
          [
            -83.9738,
            9.914174
          ],
          [
            -83.9744,
            9.914331
          ],
          [
            -83.9745,
            9.914355
          ],
          [
            -83.9753,
            9.914513
          ],
          [
            -83.9763,
            9.914753
          ],
          [
            -83.977,
            9.914775
          ],
          [
            -83.9771,
            9.914775
          ],
          [
            -83.9776,
            9.914626
          ],
          [
            -83.9777,
            9.914612
          ],
          [
            -83.9778,
            9.914555
          ],
          [
            -83.978,
            9.914462
          ],
          [
            -83.9785,
            9.914272
          ],
          [
            -83.9795,
            9.913856
          ],
          [
            -83.98,
            9.913542
          ],
          [
            -83.9805,
            9.91314
          ],
          [
            -83.9807,
            9.912992
          ],
          [
            -83.9811,
            9.912836
          ],
          [
            -83.9818,
            9.912673
          ],
          [
            -83.9819,
            9.912661
          ],
          [
            -83.9827,
            9.912559
          ],
          [
            -83.983,
            9.912515
          ],
          [
            -83.9835,
            9.912382
          ],
          [
            -83.984,
            9.912158
          ],
          [
            -83.984,
            9.912111
          ],
          [
            -83.9841,
            9.912063
          ],
          [
            -83.9846,
            9.911749
          ],
          [
            -83.9847,
            9.911617
          ],
          [
            -83.985,
            9.911424
          ],
          [
            -83.9853,
            9.911213
          ],
          [
            -83.9857,
            9.911025
          ],
          [
            -83.9863,
            9.910736
          ],
          [
            -83.9867,
            9.910593
          ],
          [
            -83.9869,
            9.910574
          ],
          [
            -83.987,
            9.910508
          ],
          [
            -83.9872,
            9.910443
          ],
          [
            -83.9875,
            9.910356
          ],
          [
            -83.9878,
            9.910309
          ],
          [
            -83.9881,
            9.910283
          ],
          [
            -83.9881,
            9.910282
          ],
          [
            -83.9887,
            9.910238
          ],
          [
            -83.9895,
            9.910184
          ],
          [
            -83.9901,
            9.91031
          ],
          [
            -83.9907,
            9.910403
          ],
          [
            -83.9914,
            9.910691
          ],
          [
            -83.9924,
            9.911266
          ],
          [
            -83.9927,
            9.911452
          ],
          [
            -83.9931,
            9.911519
          ],
          [
            -83.9949,
            9.911435
          ],
          [
            -83.996,
            9.911442
          ],
          [
            -83.9962,
            9.911443
          ],
          [
            -83.9977,
            9.911875
          ],
          [
            -83.9983,
            9.912061
          ],
          [
            -83.999,
            9.912035
          ],
          [
            -83.9995,
            9.911891
          ],
          [
            -84.0005,
            9.911494
          ],
          [
            -84.0017,
            9.911367
          ],
          [
            -84.0031,
            9.911332
          ],
          [
            -84.0039,
            9.91126
          ],
          [
            -84.0041,
            9.911219
          ],
          [
            -84.0044,
            9.911135
          ],
          [
            -84.0047,
            9.911003
          ],
          [
            -84.0056,
            9.910571
          ],
          [
            -84.006,
            9.910417
          ],
          [
            -84.0063,
            9.910282
          ],
          [
            -84.0066,
            9.910223
          ],
          [
            -84.0069,
            9.910212
          ],
          [
            -84.0072,
            9.910219
          ],
          [
            -84.0076,
            9.91026
          ],
          [
            -84.0079,
            9.910331
          ],
          [
            -84.0082,
            9.910458
          ],
          [
            -84.0085,
            9.910663
          ],
          [
            -84.0088,
            9.910877
          ],
          [
            -84.0099,
            9.911612
          ],
          [
            -84.011,
            9.912449
          ],
          [
            -84.0115,
            9.912854
          ],
          [
            -84.0119,
            9.913241
          ],
          [
            -84.0122,
            9.913608
          ],
          [
            -84.0127,
            9.914274
          ],
          [
            -84.0129,
            9.914467
          ],
          [
            -84.0132,
            9.914611
          ],
          [
            -84.0134,
            9.91471
          ],
          [
            -84.0136,
            9.914788
          ],
          [
            -84.0139,
            9.91482
          ],
          [
            -84.0141,
            9.914834
          ],
          [
            -84.0147,
            9.914794
          ],
          [
            -84.0152,
            9.914846
          ],
          [
            -84.0157,
            9.915005
          ],
          [
            -84.0158,
            9.915109
          ],
          [
            -84.0164,
            9.915551
          ],
          [
            -84.0165,
            9.915666
          ],
          [
            -84.0169,
            9.916072
          ],
          [
            -84.0172,
            9.916409
          ],
          [
            -84.0174,
            9.916555
          ],
          [
            -84.0176,
            9.91668
          ],
          [
            -84.0178,
            9.916838
          ],
          [
            -84.018,
            9.916939
          ],
          [
            -84.0181,
            9.91698
          ],
          [
            -84.0183,
            9.917005
          ],
          [
            -84.0184,
            9.917013
          ],
          [
            -84.0186,
            9.916998
          ],
          [
            -84.0191,
            9.916854
          ],
          [
            -84.0195,
            9.916778
          ],
          [
            -84.02,
            9.916863
          ],
          [
            -84.0204,
            9.917074
          ],
          [
            -84.0208,
            9.917494
          ],
          [
            -84.0211,
            9.917734
          ],
          [
            -84.0216,
            9.918207
          ],
          [
            -84.0221,
            9.918427
          ],
          [
            -84.0223,
            9.918554
          ],
          [
            -84.0228,
            9.918683
          ],
          [
            -84.0235,
            9.919064
          ],
          [
            -84.0238,
            9.919277
          ],
          [
            -84.0239,
            9.919307
          ],
          [
            -84.0245,
            9.919635
          ],
          [
            -84.0248,
            9.919759
          ],
          [
            -84.0251,
            9.919819
          ],
          [
            -84.0256,
            9.919819
          ],
          [
            -84.026,
            9.919736
          ],
          [
            -84.0268,
            9.91958
          ],
          [
            -84.0272,
            9.919525
          ],
          [
            -84.0276,
            9.91952
          ],
          [
            -84.0279,
            9.919603
          ],
          [
            -84.0283,
            9.919758
          ],
          [
            -84.0288,
            9.920045
          ],
          [
            -84.0302,
            9.920887
          ],
          [
            -84.0307,
            9.921209
          ],
          [
            -84.0312,
            9.921389
          ],
          [
            -84.0314,
            9.921438
          ],
          [
            -84.0317,
            9.921457
          ],
          [
            -84.0323,
            9.921456
          ],
          [
            -84.0328,
            9.921466
          ],
          [
            -84.0332,
            9.921525
          ],
          [
            -84.0336,
            9.921769
          ],
          [
            -84.034,
            9.92212
          ],
          [
            -84.0348,
            9.922879
          ],
          [
            -84.0349,
            9.92294
          ],
          [
            -84.035,
            9.923143
          ],
          [
            -84.0353,
            9.92346
          ],
          [
            -84.0371,
            9.925282
          ],
          [
            -84.0391,
            9.927325
          ],
          [
            -84.0394,
            9.927635
          ],
          [
            -84.0417,
            9.930026
          ],
          [
            -84.0418,
            9.930408
          ],
          [
            -84.042,
            9.930917
          ],
          [
            -84.0422,
            9.931297
          ],
          [
            -84.0425,
            9.93169
          ],
          [
            -84.0427,
            9.931902
          ],
          [
            -84.043,
            9.932141
          ],
          [
            -84.0433,
            9.932337
          ],
          [
            -84.0436,
            9.932471
          ],
          [
            -84.0438,
            9.932553
          ],
          [
            -84.044,
            9.932603
          ],
          [
            -84.0444,
            9.932631
          ],
          [
            -84.0448,
            9.932641
          ],
          [
            -84.0449,
            9.932643
          ],
          [
            -84.0451,
            9.932647
          ],
          [
            -84.0458,
            9.932689
          ],
          [
            -84.0468,
            9.932738
          ],
          [
            -84.0469,
            9.932756
          ],
          [
            -84.0477,
            9.932859
          ],
          [
            -84.0482,
            9.932937
          ],
          [
            -84.0493,
            9.933214
          ],
          [
            -84.0496,
            9.933267
          ],
          [
            -84.0503,
            9.933475
          ],
          [
            -84.0511,
            9.933684
          ],
          [
            -84.0522,
            9.933986
          ],
          [
            -84.0523,
            9.934032
          ],
          [
            -84.0524,
            9.934035
          ],
          [
            -84.0529,
            9.93418
          ],
          [
            -84.0536,
            9.93441
          ],
          [
            -84.0538,
            9.934457
          ],
          [
            -84.0553,
            9.934912
          ],
          [
            -84.0554,
            9.934951
          ],
          [
            -84.0555,
            9.934972
          ],
          [
            -84.0559,
            9.935085
          ],
          [
            -84.0563,
            9.935183
          ],
          [
            -84.0566,
            9.935278
          ],
          [
            -84.0571,
            9.935381
          ],
          [
            -84.0573,
            9.935426
          ],
          [
            -84.0576,
            9.935445
          ],
          [
            -84.0577,
            9.935447
          ],
          [
            -84.0578,
            9.935449
          ],
          [
            -84.0579,
            9.935449
          ],
          [
            -84.0582,
            9.935424
          ],
          [
            -84.0585,
            9.93537
          ],
          [
            -84.0599,
            9.934974
          ],
          [
            -84.0607,
            9.934749
          ],
          [
            -84.0612,
            9.934601
          ],
          [
            -84.0614,
            9.934554
          ],
          [
            -84.0622,
            9.934314
          ],
          [
            -84.0635,
            9.933905
          ],
          [
            -84.0637,
            9.93386
          ],
          [
            -84.0643,
            9.933692
          ],
          [
            -84.0648,
            9.933588
          ],
          [
            -84.0649,
            9.933568
          ],
          [
            -84.0651,
            9.933555
          ],
          [
            -84.0653,
            9.933542
          ],
          [
            -84.0657,
            9.933572
          ],
          [
            -84.0661,
            9.933628
          ],
          [
            -84.0662,
            9.933644
          ],
          [
            -84.0663,
            9.933654
          ],
          [
            -84.0666,
            9.933783
          ],
          [
            -84.0671,
            9.934008
          ],
          [
            -84.0672,
            9.93408
          ],
          [
            -84.0674,
            9.934166
          ],
          [
            -84.0678,
            9.934317
          ],
          [
            -84.0679,
            9.934397
          ],
          [
            -84.0686,
            9.934734
          ],
          [
            -84.0686,
            9.93473
          ],
          [
            -84.0687,
            9.934785
          ],
          [
            -84.0689,
            9.934874
          ]
        ]
      },
      "properties": {
        "shape_id": "paraiso_atlantico"
      }
    }
  ]
}